business name,distance in miles,phone number,category,address,address 2,address 3,city,state,zip
Anchorage Midtown Dental Center,1.44,+19075626456,"Cosmetic Dentists,General Dentistry",2805 Dawson St,Ste 101,,Anchorage,AK,99503
Huffman Family Dentistry,4.69,+19073457722,"General Dentistry,Cosmetic Dentists",12350 Industry Way,,,Anchorage,AK,99515
bty DENTAL,2.52,+19073336666,General Dentistry,726 E 9th Ave,,,Anchorage,AK,99501
Healthy Smiles Dental,4.8,+19073413139,"Cosmetic Dentists,General Dentistry,Pediatric Dentists",12501 Old Seward Hwy,Ste C,,Anchorage,AK,99515
Alaska Premier Dental Group,4.41,+19073370404,"General Dentistry,Cosmetic Dentists,Periodontists",6611 DeBarr Rd,,Ste 100 & 200,Anchorage,AK,99504
Murphy Family Dental,0.35,+19075614047,General Dentistry,330 E Tudor Rd,,,Anchorage,AK,99503
"Richard Crosby, DDS",1.09,+19072771098,"General Dentistry,Cosmetic Dentists",3111 Denali St,,,Anchorage,AK,99503
"Julie A Veerman, DDS, LLC",1.06,+19073368772,General Dentistry,3909 Arctic Blvd,Ste 205,,Anchorage,AK,99503
Alaska Dental Arts,0.88,+19075618573,"Cosmetic Dentists,General Dentistry",3401 Denali St,Ste 201,,Anchorage,AK,99503
Mint Dental,1.32,+19076468672,"Cosmetic Dentists,General Dentistry,Endodontists",2665 E Tudor Rd,Ste 300,,Anchorage,AK,99507
Health Centered Dentistry,1.72,+19072764537,"Oral Surgeons,General Dentistry,Cosmetic Dentists",1400 W Benson Blvd,Ste 150,,Anchorage,AK,99503
Bright Smiles Dental - Southside,2.92,+19072744746,"General Dentistry,Cosmetic Dentists",9138 Arlon St,Ste B1,,Anchorage,AK,99507
"Mark R Laurin, DDS",2.18,+19073496522,"Orthodontists,General Dentistry",8301 Briarwood St,Ste 201,,Anchorage,AK,99518
Turnagain Dental,2.04,+19072726122,"General Dentistry,Cosmetic Dentists,Dental Hygienists",1842 W Northern Lights Blvd,,,Anchorage,AK,99517
Excellence In Dentistry,3.77,+19073490022,"Cosmetic Dentists,General Dentistry,Endodontists",1000 E O'Malley Rd,Ste 101,,Anchorage,AK,99515
Alaska Advanced Dentistry,1.32,+19075223633,"General Dentistry,Orthodontists,Cosmetic Dentists",6917 Old Seward Hwy,,,Anchorage,AK,99518
bty DENTAL,1.21,+19073336666,"General Dentistry,Cosmetic Dentists",3565 Arctic Blvd,Unit D1-2,,Anchorage,AK,99503
"Brett M Gardiner, DDS",0.48,+19075613639,"General Dentistry,Endodontists,Cosmetic Dentists",4000 Old Seward Hwy,Ste 100,,Anchorage,AK,99503
Abbott Family Dentistry,2.27,+19073368478,"General Dentistry,Oral Surgeons,Endodontists",1601 Abbott Rd,Ste 102,,Anchorage,AK,99507
South Anchorage Dental Center,3.85,+19072487275,"General Dentistry,Orthodontists,Cosmetic Dentists",9170 Jewel Lake Rd,Ste 201,,Anchorage,AK,99502
Anchorage btyDENTAL,3.03,+19073336666,"Cosmetic Dentists,General Dentistry",1921 W Dimond Blvd,Ste 101,,Anchorage,AK,99515
The Libby Group,1.18,+19072742659,"Oral Surgeons,Cosmetic Dentists,General Dentistry",3920 Lake Otis Pkwy,,,Anchorage,AK,99508
Advanced Family Dental Care,0.91,+19075611330,"Cosmetic Dentists,General Dentistry",3500 Latouche St,,,Anchorage,AK,99508
Family First Dentistry,1.12,+19075622820,"Cosmetic Dentists,Orthodontists,General Dentistry",4050 Lake Otis Pkwy,,,Anchorage,AK,99508
"Timothy M Lethin, DDS, PC",3.37,+19073379474,General Dentistry,2601 Boniface Pkwy,Ste 2,,Anchorage,AK,99504
Frost Dental,3.35,+19073125479,"General Dentistry,Cosmetic Dentists,Endodontists",3024 Mountain View Dr,,,Anchorage,AK,99501
Miller Debra L DMD,3.39,+19072486066,General Dentistry,2700 W Dimond Blvd,,,Anchorage,AK,99502
"Terry J Preece, DDS-Healthy Smiles Dental",4.8,+19072223242,"Cosmetic Dentists,General Dentistry,Endodontists",12501 Old Seward Hwy,Ste C,,Anchorage,AK,99515
"Spalding Dental, LLC",1.4,+19072766288,"General Dentistry,Cosmetic Dentists",2525 Gambell St,Ste 304,,Anchorage,AK,99503
Pauli Richard S DDS,0.91,+19075611330,General Dentistry,3500 Latouche St,Ste 210,,Anchorage,AK,99508
Alaska Smiles,2.28,+19072786684,"Cosmetic Dentists,General Dentistry",1000 E Dimond Blvd,Ste 210,,Anchorage,AK,99515
"Easley Kevin M, DMD",1.77,+19072480022,"General Dentistry,Cosmetic Dentists,Sleep Specialists",3003 Minnesota Dr,Ste 200,,Anchorage,AK,99503
Glacier Dental,1.2,+19072226000,Dentists,2421 E Tudor Rd,Ste 101,,Anchorage,AK,99507
AIDEA,1.71,+19072581515,"Oral Surgeons,General Dentistry",1407 W 31st Ave,Ste 601,,Anchorage,AK,99503
Alaska Dental Associates,1.35,+19075622284,"General Dentistry,Cosmetic Dentists,Pediatric Dentists",2702 Denali St,Ste 201,,Anchorage,AK,99503
Dimond Family Dental Center,2.28,+19073445544,"General Dentistry,Oral Surgeons,Endodontists",1000 E Dimond Blvd,Ste 205,,Anchorage,AK,99515
Alaska Dental Care,0.48,+19075613639,"General Dentistry,Cosmetic Dentists,Periodontists",4000 Old Seward Hwy,Ste 200,,Anchorage,AK,99503
bty Dental,2.02,+19073336666,"General Dentistry,Cosmetic Dentists",1818 West Northern Lights Blvd,,,Anchorage,AK,99517
"Charles  Michael, DDS",1.4,+19078853666,"General Dentistry,Cosmetic Dentists,Teeth Whitening",2525 Gambell St,Ste 304,,Anchorage,AK,99503
Kennedy Dental Group,0.9,+19072775684,"General Dentistry,Cosmetic Dentists,Dental Hygienists",625 E 34th Ave,Ste 301,,Anchorage,AK,99503
bty DENTAL,5.58,+19073336666,"General Dentistry,Cosmetic Dentists",1136 N Muldoon Rd,Ste 110,,Anchorage,AK,99504
Northstar Dental,2.26,+19079291728,"Cosmetic Dentists,Oral Surgeons,Endodontists",1000 E Dimond,Ste 200,,Anchorage,AK,99515
"Devin Johnson, DMD MS - Northern Smiles Orthodontics",2.83,+19075611902,Orthodontists,2000 Abbott Rd,Ste 202,,Anchorage,AK,99507
Gregorin Dental,5.06,+19073335522,"General Dentistry,Cosmetic Dentists,Pediatric Dentists",7985 E 16th Ave,Ste 300,,Anchorage,AK,99504
Anchorage Dental Arts,1.41,+19072761712,"General Dentistry,Cosmetic Dentists,Orthodontists",2600 Cordova St,Ste 200,,Anchorage,AK,99503
"Ken Wynne DMD, Dimond Family Dental Center",2.28,+19073445544,General Dentistry,1000 E Dimond Blvd,Ste 205,,Anchorage,AK,99515
Fresh Dental Care,1.82,+19072761050,"General Dentistry,Cosmetic Dentists",900 W Fireweed Ln,,,Anchorage,AK,99503
North Pacific Endodontics,1.32,+19075610675,Endodontists,4001 Laurel St,Ste 208,,Anchorage,AK,99508
"J. Bryson McBratney, DDS",1.34,+19075623323,"General Dentistry,Cosmetic Dentists,Periodontists",6200 Lake Otis Pkwy,Ste 101,,Anchorage,AK,99507
Foothills Dentistry- Anchorage,2.18,+19072809585,"General Dentistry,Periodontists,Cosmetic Dentists",8301 Briarwood St,Ste 202,,Anchorage,AK,99518
Fireweed Family Dentistry,1.93,+19072796000,"General Dentistry,Cosmetic Dentists",1113 W Fireweed Ln,Ste 101,,Anchorage,AK,99503
Anchorage Pediatric Dentistry,1.1,+19075621003,Pediatric Dentists,4200 Lake Otis Pkwy,Ste 102,Anchorage Pediatric Dentistry,Anchorage,AK,99508
Century Dental Center,0.84,+19075612475,"General Dentistry,Endodontists,Cosmetic Dentists",3501 Denali St,Ste 302,,Anchorage,AK,99503
Peak Health Dentistry at GentleCare,4.41,+19073370304,"Cosmetic Dentists,General Dentistry,Oral Surgeons",6611 DeBarr Rd,Ste 101,,Anchorage,AK,99504
Yuknis Leonard DDS,3.37,+19073339591,Oral Surgeons,2601 Boniface Pkwy,,,Anchorage,AK,99504
Mabry Lara DDS,3.37,+19073379448,Dentists,2601 Boniface Pkwy,,,Anchorage,AK,99504
Artistic Dentistry,2.86,+19073441990,"General Dentistry,Cosmetic Dentists,Endodontists",2020 Abbott Rd,Ste 5,,Anchorage,AK,99507
bty DENTAL,2.92,+19073336666,"General Dentistry,Cosmetic Dentists,Periodontists",9138 Arlon St,,,Anchorage,AK,99507
Four Corners Dental Group: Anchorage,3.05,+19072583384,"General Dentistry,Cosmetic Dentists,Endodontists",3901 Raspberry Rd,,,Anchorage,AK,99502
Alcan Dental Group,1.42,+19075624774,"Cosmetic Dentists,General Dentistry,Pediatric Dentists",2819 Dawson St,,,Anchorage,AK,99503
Wrigley Deborah E DDS,3.37,+19073339591,General Dentistry,2601 Boniface Pkwy,,,Anchorage,AK,99504
Whole Family Dental,2.85,+19072767787,General Dentistry,880 N St,,,Anchorage,AK,99501
"Darin Anderson, DDS",2.32,+19073493636,Endodontists,800 E Dimond Blvd,Ste 3-600,,Anchorage,AK,99515
Denali Pediatric Dentistry,1.37,+19073349543,Pediatric Dentists,2600 Denali St,Ste 500,,Anchorage,AK,99503
Just Kids,5.26,+19073335437,Pediatric Dentists,700 Muldoon Rd,,,Anchorage,AK,99504
Fergusson & Associates,7.84,+19073480047,General Dentistry,16860 Old Seward Hwy,,,Anchorage,AK,99516
Aurora Family Dentistry,1.57,+19072587060,"Orthodontists,Cosmetic Dentists,General Dentistry",121 West Fireweed Ln,Ste 280,,Anchorage,AK,99503
Ersland Family Dental,1.39,+19072761621,"General Dentistry,Cosmetic Dentists,Pediatric Dentists",2525 Gambell St,Ste 304,,Anchorage,AK,99503
Heatherstone Dental Center,3.39,+19072486066,General Dentistry,2700 W Dimond Blvd,,,Anchorage,AK,99502
Clear Dental,3.25,+19073376453,"General Dentistry,Cosmetic Dentists",2906 Boniface Pkwy,,,Anchorage,AK,99504
Welch Maurice DDS,0.39,+19075634844,Oral Surgeons,4450 Cordova St,,,Anchorage,AK,99503
DuClos Orthodontics,2.05,+19072723200,"Oral Surgeons,Orthodontists",1836 W Northern Lights Blvd,,,Anchorage,AK,99517
Ostby Family Dental,0.66,+19075611228,"Cosmetic Dentists,General Dentistry",1600 E Tudor Rd,Ste 2,,Anchorage,AK,99507
"Murphy Seth D, DDS",0.35,+19075614047,Dentists,330 E Tudor Rd,,,Anchorage,AK,99503
Stratton Jim L DDS,2.18,+19073493569,Oral Surgeons,8301 Briarwood St,Ste 202,,Anchorage,AK,99518
Glacier Dental,0.8,+19072226000,General Dentistry,3606 Rhone Cir,,,Anchorage,AK,99508
Anchorage Oral & Maxillofacial Surgery,2.83,+19075629939,Oral Surgeons,2000 Abbott Rd,Ste 200,,Anchorage,AK,99507
Smiles Dental - Midtown,0.9,+19072684939,"General Dentistry,Periodontists,Cosmetic Dentists",625 E 34th Ave,Ste 200,,Anchorage,AK,99503
Urda Warren DDS,1.52,+19072763804,Oral Surgeons,237 E Fireweed Ln,Ste 101,,Anchorage,AK,99503
Denali Family Dental Center,0.87,+19075611317,"Orthodontists,General Dentistry,Cosmetic Dentists",3401 Denali St,Ste 102,,Anchorage,AK,99503
"John M Sparaga, DMD",3.04,+19075225000,Orthodontists,9500 Independence Dr,Ste 1000,,Anchorage,AK,99507
"Paul Biederman, DDS - Aurora Family Dentistry",1.57,+19072587060,"General Dentistry,Cosmetic Dentists",121 W Fireweed Ln,Ste 280,,Anchorage,AK,99503
All About Smiles Dental,1.52,+19072763804,"Periodontists,Cosmetic Dentists,General Dentistry",237 E Fireweed Ln,Ste 101,,Anchorage,AK,99503
Morehead Robert W DMD,1.41,+19072761712,General Dentistry,2600 Cordova St,Ste 200,,Anchorage,AK,99503
"David L Maisey, DDS",0.88,+19075611317,"Cosmetic Dentists,General Dentistry",3401 Denali St,Ste 102,,Anchorage,AK,99503
Legacy Dental Arts,14.94,+19076227874,"General Dentistry,Endodontists,Periodontists",12641 Old Glenn Hwy,Ste 204,,Eagle River,AK,99577
Deeter Randy DDS,1.27,+19075611430,Oral Surgeons,3650 Lake Otis Pkwy,,,Anchorage,AK,99508
Matthews Robert S DDS,1.92,+19075617110,"Oral Surgeons,Periodontists",3340 Providence Dr,Ste 363,,Anchorage,AK,99508
bty DENTAL,3.99,+19073336666,General Dentistry,4211 Mountain View Dr,Ste 102,,Anchorage,AK,99508
Alaska Oral Surgery Group,2.75,+19072785678,Oral Surgeons,1200 Airport Heights Dr,Ste 265,,Anchorage,AK,99508
Kids Dental Tree,2.31,+19073367337,"Pediatric Dentists,General Dentistry",1310 E Dimond Blvd,Ste 3,,Anchorage,AK,99515
Oral Surgery Associates,1.27,+19075611430,General Dentistry,3650 Lake Otis Pkwy,Ste 201,,Anchorage,AK,99508
Pediatric Dental Associates,0.36,+19075221991,Pediatric Dentists,330 E Tudor Rd,,,Anchorage,AK,99503
Alaska Endodontics Specialist,1.21,+19073349995,Endodontists,4001 Lake Otis Pkwy,,,Anchorage,AK,99508
Engibous Paul DDS,0.35,+19075221567,"Oral Surgeons,Pediatric Dentists",330 E Tudor Rd,,,Anchorage,AK,99503
Family Medical Dental Center,3.11,+19073331211,"Orthodontists,Periodontists,Oral Surgeons",4361 Boniface Pkwy,,,Anchorage,AK,99504
Accent On Dentistry,3.04,+19075223000,"General Dentistry,Teeth Whitening",9500 Independence Dr,Ste 700,,Anchorage,AK,99507
Clear Smiles Alaska,3.04,+19075225000,Orthodontists,9500 Independence Dr,Ste 1000,,Anchorage,AK,99507
"Maloney Stephen M, DMD",1.93,+19072796000,Dentists,1113 W Fireweed Ln,Ste 101,,Anchorage,AK,99503
Koropp Orthodontics,3.39,+19072488999,Orthodontists,2700 W Dimond Blvd,Ste 1,,Anchorage,AK,99502
Oral Surgery Associates of Alaska,2.11,+19075611430,Oral Surgeons,111 W 16th Ave,Ste 203,,Anchorage,AK,99501
Solstice Dentistry,3.37,+19073339591,Oral Surgeons,2601 Boniface Pkwy,,,Anchorage,AK,99504
"Symonds Lisa, DDS",1.21,+19072728422,Oral Surgeons,2401 E 42nd Ave,Ste 201,,Anchorage,AK,99508
Aspen Endodontics,1.06,+19072793636,Endodontists,3909 Arctic Blvd,Ste 203,,Anchorage,AK,99503
"Coombs Orthodontics LLC, DDS",0.77,+19073414310,Orthodontists,3708 Rhone Cir,,,Anchorage,AK,99508
Anchorage Dental Center,2.58,+19072782521,Cosmetic Dentists,235 E 9th Ave,,,Anchorage,AK,99501
Alaska Oral Surgery Center,2.23,+19075223007,Oral Surgeons,800 E Dimond Blvd,Ste 3-535,,Anchorage,AK,99515
Murray Orthodontics,3.77,+19072770502,Orthodontists,1000 O'Malley Rd,Ste 105,,Anchorage,AK,99515
Hartman Brian DMD,3.37,+19073371536,Orthodontists,2601 Boniface Pkwy,,,Anchorage,AK,99504
Midnight Sun Dental Center,13.92,+19076223000,"General Dentistry,Cosmetic Dentists,Teeth Whitening",10928 Eagle River Rd,Ste 105,,Eagle River,AK,99577
"Derek N Priebe, DDS - Priebe Orthodontics",0.88,+19075632828,Orthodontists,3401 Denali St,,,Anchorage,AK,99503
Alaska Dentistry for Kids,4.6,+19072742525,Pediatric Dentists,1389 Huffman Park Dr,Ste 208,,Anchorage,AK,99515
Eagle View Family Dental,14.12,+19076945207,General Dentistry,16635 Centerfield Dr,Ste 207,,Eagle River,AK,99577
Murray Orthodontics,1.64,+19072770502,Orthodontists,2211 E Northern Lights Blvd,,,Anchorage,AK,99508
Eagle River Orthodontics,14.12,+19076943555,Orthodontists,16635 Centerfield Dr,Ste 201,,Eagle River,AK,99577
"Brett L Keeler, DDS",15.07,+19076942129,General Dentistry,13012 Old Glenn Hwy,Ste 101,,Eagle River,AK,99577
Alaska Oral Surgery Group,13.92,+19076941248,"General Dentistry,Oral Surgeons",10928 Eagle River Rd,Ste 128,,Eagle River,AK,99577
Alaska Native Medical Center,2.34,+19075632662,Hospitals,4315 Diplomacy Dr,,,Anchorage,AK,99508
Discovery Dental,14.94,+19076225437,Pediatric Dentists,12641 Old Glenn Hwy,Ste 203,,Eagle River,AK,99577
Orlando Family & Cosmetic Dentistry,4.39,+14078941451,"General Dentistry,Cosmetic Dentists",3191 Maguire Blvd,Ste 251,,Orlando,FL,32803
Simmonds Dental Center,5.77,+14079821912,"General Dentistry,Cosmetic Dentists",1601 Park Center Dr,Ste 1,,Orlando,FL,32835
Crescent Dental,4.07,+14072757703,"General Dentistry,Cosmetic Dentists",5480 Curry Ford Rd,,,Orlando,FL,32812
Sand Lake Dental,7.84,+14073550608,"General Dentistry,Cosmetic Dentists,Oral Surgeons",7932 W Sand Lake Rd,Ste 301,,Orlando,FL,32819
Natural Smiles of Orlando,3.15,+14078965656,"Cosmetic Dentists,General Dentistry,Endodontists",1315 E Robinson St,,,Orlando,FL,32801
Lake Nona Dental Group,10.22,+14072771779,"General Dentistry,Cosmetic Dentists",10429 Moss Park Rd,,,Orlando,FL,32832
Orlando Dentures and Implants,0.77,+14072504832,"General Dentistry,Oral Surgeons",251 E Michigan St,,,Orlando,FL,32806
Southpark Dental Group,5.11,+14072480100,"Periodontists,General Dentistry,Cosmetic Dentists",8801 Commodity Cir,,,Orlando,FL,32819
Waterford Chase Dental,11.54,+14076746890,"General Dentistry,Cosmetic Dentists",801 Woodbury Rd,Ste 102,,Orlando,FL,32828
Winter Park Dentistry,6.11,+14076292161,"General Dentistry,Pediatric Dentists,Cosmetic Dentists",865 Balch Ave,,,Winter Park,FL,32789
Winter Park Family Dentistry and Prosthodontics,6.71,+14076440177,"Pediatric Dentists,General Dentistry,Cosmetic Dentists",731 West Morse Blvd,,,Winter Park,FL,32789
Doctor Phillips Modern Dentistry,7.11,+14072050246,"Cosmetic Dentists,Oral Surgeons,General Dentistry",8015 Turkey Lake Rd,Ste 300,,Orlando,FL,32819
Oasis Dental,3.5,+14076748770,"Cosmetic Dentists,General Dentistry",610 N Mills Ave,Ste 200,,Orlando,FL,32803
Alafaya Center for Cosmetic & Family Dentistry,11.28,+14073813000,"General Dentistry,Cosmetic Dentists",1870 N Alafaya Trl,,,Orlando,FL,32826
"Amaury Valle, DMD",4.79,+14076014468,"General Dentistry,Cosmetic Dentists,Endodontists",2116 Edgewater Dr,,,Orlando,FL,32804
Nona Dentists,11.58,+14076271235,"Oral Surgeons,General Dentistry,Cosmetic Dentists",12711 Narcoossee Rd,"Bldg B, Ste 100",,Orlando,FL,32832
Hillcrest Dental,5.66,+14078982371,"General Dentistry,Cosmetic Dentists",3600 Formosa Ave,,,Orlando,FL,32804
"Douglas A Huhn, DMD, PA",1.82,+14074226281,"General Dentistry,Cosmetic Dentists,Periodontists",1100 S Orange Ave,,,Orlando,FL,32806
Lake Baldwin Dental,4.93,+14075158500,General Dentistry,950 Lake Baldwin Ln,,,Orlando,FL,32814
Lee Vista Dental,7.1,+14073848099,General Dentistry,8624 Lee Vista Blvd,,,Orlando,FL,32829
The Dentist's Studio,5.86,+14076471744,General Dentistry,1350 Orange Ave,Ste 106,,Winter Park,FL,32789
Fine Dentistry of Downtown Orlando,3.38,+14078981621,"General Dentistry,Cosmetic Dentists,Periodontists",429 N Ferncreek Ave,,,Orlando,FL,32803
Watson Dental Care,5.31,+14073513213,"General Dentistry,Orthodontists,Cosmetic Dentists",5979 Vineland Rd,Ste 205,,Orlando,FL,32819
Sperling Dental,1.02,+14078434091,"Cosmetic Dentists,General Dentistry",905 E Michigan St,,,Orlando,FL,32806
Dynamic Smile Design,3.59,+14078955600,"Cosmetic Dentists,General Dentistry",1600 E Hillcrest St,,,Orlando,FL,32803
Watkins Dental Group,4.23,+14078941100,General Dentistry,1318 N Mills Ave,,,Orlando,FL,32803
Elite Dentistry,13.55,+14076580103,"Cosmetic Dentists,General Dentistry",13000 Avalon Lake Dr,Ste 201,,Orlando,FL,32828
Dentistry at Lake Nona,10.4,+14073807734,"Endodontists,Periodontists,Cosmetic Dentists",10743 Narcoossee Rd,Ste A26,,Orlando,FL,32832
24 Hour Dentist,6.53,+14079030320,"General Dentistry,Endodontists,Orthodontists",7259 International Dr,,,Orlando,FL,32819
Buena Vista Family Dentistry,10.48,+14079300060,"General Dentistry,Cosmetic Dentists",11444 S Apopka Vineland Rd,Ste 101,,Orlando,FL,32836
All About Beautiful Smiles,7.66,+14072909588,"General Dentistry,Cosmetic Dentists",7450 Dr Phillips Blvd,Ste 200,,Orlando,FL,32819
Park Smiles Dentistry,6.74,+14076454645,"Cosmetic Dentists,General Dentistry,Orthodontists",199 E Welbourne Ave,Ste 200,,Winter Park,FL,32789
"Rampi, Richard C, DMD",6.21,+14073526959,General Dentistry,5940 Turkey Lake Rd,,,Orlando,FL,32819
Woodbury Family Dentistry,11.73,+14072823232,General Dentistry,12278 E Colonial Dr,,,Orlando,FL,32826
"Mary Gharagozloo, DDS",3.1,+14076483688,"Cosmetic Dentists,General Dentistry,Periodontists",338 N Magnolia Dr,,,Orlando,FL,32801
"Alan R Heap, DMD",6.44,+14075783734,"Prosthodontists,Pediatric Dentists,Cosmetic Dentists",2295 S Hiawassee Rd,Ste 216,,Orlando,FL,32835
Overmeyer Family Dental,2.84,+14076033839,"General Dentistry,Cosmetic Dentists,Orthodontists",3221 S Conway Rd,Ste C,,Orlando,FL,32812
"Michael Salazar, DDS",3.08,+14078551128,Dentists,4755 S Conway Rd,,,Orlando,FL,32812
"Vincent A Grosso II, DMD",11.07,+14073505969,"General Dentistry,Cosmetic Dentists,Endodontists",1140 Cypress Glen Cir,,,Kissimmee,FL,34741
"Carl L Weston, DDS",5.0,+14073519841,"Oral Surgeons,General Dentistry",5692 Windhover Dr,,Dental orlando,Orlando,FL,32819
Master Family Dental,6.45,+14077209944,"Cosmetic Dentists,General Dentistry,Orthodontists",6646 Old Winter Garden Rd,,Oakhilll Village Plz,Orlando,FL,32835
Colonial Dental Care,5.53,+14072999099,"General Dentistry,Orthodontists,Cosmetic Dentists",5074 W Colonial Dr,,,Orlando,FL,32808
Smiles Forever,7.15,+14073631904,"Cosmetic Dentists,General Dentistry,Oral Surgeons",7208 W Sand Lake Rd,,,Orlando,FL,32819
Thornton Park Dental Arts,3.1,+14078962881,"Cosmetic Dentists,General Dentistry",1200 E Robinson St,,,Orlando,FL,32801
Metro Smiles,5.27,+14072917220,"General Dentistry,Cosmetic Dentists,Orthodontists",2869 Wilshire Dr,Ste 101,,Orlando,FL,32835
Sage Dental of Downtown Orlando,2.76,+14074406777,"Cosmetic Dentists,General Dentistry,Periodontists",404 E Central Blvd,Ste 100,,Orlando,FL,32801
"David E. Junca, DDS - Junca Dental & Associates",5.99,+14078883384,"General Dentistry,Cosmetic Dentists,Periodontists",680 S Goldenrod Rd,,,Orlando,FL,32822
"Edwin J Szczepanik, DMD",7.48,+14073526888,"General Dentistry,Oral Surgeons,Cosmetic Dentists",7758 Wallace Rd,Ste 3,,Orlando,FL,32819
Koyfman Dental,3.72,+14078419435,"General Dentistry,Cosmetic Dentists,Orthodontists",1255 W Colonial Dr,,,Orlando,FL,32804
"Marcia E Martinez, DMD PA",3.72,+14072736620,"General Dentistry,Cosmetic Dentists",5180 Curry Ford Rd,,,Orlando,FL,32812
"Marcy L Keown,DMD,PA",10.88,+14074821405,"Pediatric Dentists,General Dentistry,Orthodontists",1549 S Alafaya Trl,Ste 200,,Orlando,FL,32828
Orlando Dental Center,0.67,+14078517740,"General Dentistry,Endodontists,Orthodontists",300 Gatlin Ave,Ste 1,,Orlando,FL,32806
University Dental Group,10.44,+14076795151,"Pediatric Dentists,Orthodontists,Cosmetic Dentists",4051 N Dean Rd,,,Orlando,FL,32817
Paroo Dental,8.02,+14079090338,"General Dentistry,Cosmetic Dentists",4848 S Apopka Vineland Rd,Ste 218,,Orlando,FL,32819
"Anne Hajek, DDS",6.44,+14075321977,"General Dentistry,Cosmetic Dentists",7485 Conroy Windermere Rd,Ste B,,Orlando,FL,32835
Mills Park Dental,5.82,+14072281353,"Cosmetic Dentists,Endodontists,Periodontists",1327 N Mills Ave,,,Orlando,FL,32803
My Dental Care Center,9.84,+14072403372,"General Dentistry,Endodontists,Cosmetic Dentists",3708 Town Ctr Blvd,Ste B,,Orlando,FL,32837
"Carlos J Gurreonero DMD, PA",5.19,+14072195931,"Cosmetic Dentists,Oral Surgeons,Endodontists",8865 Commodity Cir,Ste 6,,Orlando,FL,32819
Windermere Dental and Medical Spa,11.98,+13214451115,"General Dentistry,Medical Spas,Cosmetic Dentists",9005 Taborfield Ave,,,Orlando,FL,32836
Parkway Dental Care,11.28,+14079322273,"General Dentistry,Cosmetic Dentists",1064 E Osceola Pkwy,,,Kissimmee,FL,34744
Nona Smiles,8.69,+14073787288,"Cosmetic Dentists,General Dentistry,Periodontists",9145 Narcoossee Rd,Ste A-100,,Orlando,FL,32827
Family & Cosmetic Dentistry,6.99,+14073822282,"General Dentistry,Cosmetic Dentists,Endodontists",6415 S Chickasaw Trl,,,Orlando,FL,32829
Conway Oaks Dental,2.84,+14079076760,"Cosmetic Dentists,General Dentistry,Endodontists",3221 S Conway Rd,Ste A,,Orlando,FL,32812
Baldwin Park Family Dental,5.37,+14078971120,General Dentistry,4808 New Broad St,,,Orlando,FL,32814
"Christina A Boesch, DMD",2.55,+14078570950,"Pediatric Dentists,General Dentistry,Cosmetic Dentists",5155 S John Young Pkwy,,,Orlando,FL,32839
Lake Eola Dental,3.09,+14079307007,"General Dentistry,Cosmetic Dentists,Endodontists",338 N Magnolia Ave,Ste C,,Orlando,FL,32801
Windermere Dentistry,8.14,+14079091099,"General Dentistry,Cosmetic Dentists,Endodontists",4769 The Grove Dr,Ste 100,,Windermere,FL,34786
Harden Family Dentistry,0.13,+14078265205,"General Dentistry,Cosmetic Dentists",3825 Oakwater Cir,,,Orlando,FL,32806
Delaney Park Dentistry,2.22,+14074223131,"General Dentistry,Cosmetic Dentists",605 Delaney Ave,,,Orlando,FL,32801
Medplex Dental,7.97,+14073512245,"Cosmetic Dentists,General Dentistry,Endodontists",7350 Sandlake Commons Blvd,Ste 1121,,Orlando,FL,32819
Smile Dental,11.52,+14077376464,"General Dentistry,Endodontists,Cosmetic Dentists",11500 University Blvd,Ste 101,,Orlando,FL,32817
Lake Nona Family Dentistry,9.1,+14072034100,"General Dentistry,Cosmetic Dentists",9625 Lake Nona Village Place,,,Orlando,FL,32827
"Gregory D Reddish, DMD",1.19,+14078973406,General Dentistry,1414 E Michigan St,,,Orlando,FL,32806
Elegantly Dental,3.89,+14078510784,"General Dentistry,Cosmetic Dentists,Periodontists",1325 Florida Mall Ave,,,Orlando,FL,32809
Life Enhancing Dentistry,12.48,+14072059544,"General Dentistry,Endodontists,Cosmetic Dentists",9717 Eagle Creek Center Blvd,Ste 102,,Orlando,FL,32832
Bright Now! Dental,3.95,+14075175510,"General Dentistry,Cosmetic Dentists,Orthodontists",1700 Sand Lake Rd,,,Orlando,FL,32809
Phan-tastic Smiles,6.43,+14072827498,"General Dentistry,Cosmetic Dentists",7824 Lake Underhill Rd,Ste G,,Orlando,FL,32822
Center for Dental Anesthesia,3.3,+14078944921,"General Dentistry,Cosmetic Dentists",2122 E Robinson St,,,Orlando,FL,32803
Conway Dental Care,2.89,+14078942048,"Cosmetic Dentists,General Dentistry",3862 Curry Ford Rd,,,Orlando,FL,32806
Park Lake Dental,3.5,+14078417321,"General Dentistry,Cosmetic Dentists,Endodontists",304 E Colonial Dr,,,Orlando,FL,32801
"Halem Evelyn Miranda, DMD PA",5.84,+14072946009,General Dentistry,1405 S Hiawassee Rd,Ste C,,Orlando,FL,32835
Orlando Dental & Implant Studio,7.32,+14076017999,"Cosmetic Dentists,General Dentistry,Naturopathic/Holistic",8257 Narcoossee Park Dr,Ste 524,,Orlando,FL,32822
Windermere Dental Group,6.43,+14072941132,"Orthodontists,Cosmetic Dentists,General Dentistry",6996 Piazza Grande Ave,Ste 209,,Orlando,FL,32835
Advance Dental Care,10.11,+14076748754,General Dentistry,14050 Town Loop Blvd,,,Orlando,FL,32837
"Gerald M Levine, DMD",5.13,+14072940067,"General Dentistry,Cosmetic Dentists",4558 S Kirkman Rd,,,Orlando,FL,32811
South Orlando Dental Center,7.11,+14078579888,"Cosmetic Dentists,General Dentistry",11222 S Orange Blossom Trl,,,Orlando,FL,32837
Collins Dental,12.24,+14076999831,"Cosmetic Dentists,General Dentistry,Orthodontists",5744 Canton Cv,,,Winter Springs,FL,32708
Orofacial & Dental Implant Surgery,11.44,+14073805855,"General Dentistry,Oral Surgeons",12780 Waterford Lakes Pkwy,,,Orlando,FL,32828
Smiles for Life,2.0,+14078127499,General Dentistry,5724 Hansel Ave,,,Orlando,FL,32809
"Hans R Koenig, DMD PA",5.11,+14072776272,"Cosmetic Dentists,General Dentistry,Periodontists",500 N Semoran Blvd,,,Orlando,FL,32807
"Donald R. McGee, DMD, PA",0.72,+14078430295,"General Dentistry,Cosmetic Dentists",494 E Illiana St,,,Orlando,FL,32806
Serene Dental,6.67,+14074340243,"General Dentistry,Pediatric Dentists,Cosmetic Dentists",275 S Chickasaw Trl,,,Orlando,FL,32825
Transcend Dental,3.23,+14072757700,General Dentistry,4435 Curry Ford Rd,,,Orlando,FL,32812
Arenz Dental,2.83,+14072731469,"Cosmetic Dentists,General Dentistry",3221 S Conway Rd,Ste B,,Orlando,FL,32812
"Richard J Arkins, DMD",1.24,+14078942336,General Dentistry,2712 S Ferncreek Ave,,,Orlando,FL,32806
Sage Dental of Conway,3.19,+14072184744,"Cosmetic Dentists,Oral Surgeons,Orthodontists",4441 Hoffner Ave,,,Orlando,FL,32812
Venetian Pointe Dentistry,6.21,+14073526959,General Dentistry,5940 Turkey Lake Rd,,,Orlando,FL,32819
"Ardin Manalo, DMD",4.56,+14072460104,General Dentistry,5301 Conroy Rd,Ste 100,,Orlando,FL,32811
Midtown Modern Dentistry,10.01,+14077067000,"General Dentistry,Oral Surgeons,Endodontists",9439 Forest City Cv,Ste 1070,,Altamonte Springs,FL,32714
"Baez Ignacio A, DMD",0.66,+14074383777,General Dentistry,300 Gatlin Ave,,,Orlando,FL,32806
"Stanley Asensio, DMD",7.49,+14074387177,"General Dentistry,Endodontists,Cosmetic Dentists",2144 Whisper Lakes Blvd,,,Orlando,FL,32837
"Gillman Thomas P, DDS",0.67,+14078517740,"Endodontists,General Dentistry",300 Gatlin Ave,,,Orlando,FL,32806
Modern Smiles Dentistry,12.44,+14079854401,"General Dentistry,Cosmetic Dentists,Endodontists",13816 Narcoossee Rd,Ste B,,Orlando,FL,32832
"Ong John R, DDS",3.23,+14072757700,"Endodontists,Cosmetic Dentists",4435 Curry Ford Rd,,Transcend Dental,Orlando,FL,32812
"Danielson Harry F, DDS PA",5.66,+14078982972,General Dentistry,3600 Formosa Ave,,,Orlando,FL,32804
Rizzo Dental Group,5.47,+14075218765,"Cosmetic Dentists,General Dentistry,Periodontists",6150 Metrowest Blvd,Ste 207,,Orlando,FL,32835
"John E Russo, DMD",3.3,+14078432112,"General Dentistry,Cosmetic Dentists",430 N Mills Ave,Ste 3,,Orlando,FL,32803
"Haroldo J Otero, DMD",5.27,+14078967583,"General Dentistry,Cosmetic Dentists",2921 North Orange Ave,,,Orlando,FL,32804
Smile Solutions,8.62,+14072402255,"Cosmetic Dentists,General Dentistry",12720 S Orange Blossom Trl,Ste 22,,Orlando,FL,32837
"Anthony F Oswick, DMD",5.77,+14078760290,"General Dentistry,Cosmetic Dentists",,,,Orlando,FL,32819
Orlando Endodontic Specialists,3.5,+14074237667,Endodontists,610 N Mills Ave,Ste 210,,Orlando,FL,32803
"Thomas G Overmeyer, DDS",2.84,+13214458544,General Dentistry,3221 S Conway Rd,Ste C,,Orlando,FL,32812
"Enrique Rovira, DMD",3.58,+14072826380,General Dentistry,5110 Curry Ford Rd,Ste A,,Orlando,FL,32812
Andover Dental,8.4,+14072818885,"General Dentistry,Cosmetic Dentists,Pediatric Dentists",10220 Curry Ford Rd,,,Orlando,FL,32825
"Harrison John R, DDS PA",6.41,+14072913600,General Dentistry,7463 Conroy Windermere Rd,Ste B,,Orlando,FL,32835
Dream Dental Services,11.44,+14074760897,"General Dentistry,Cosmetic Dentists,Orthodontists",210 Loraine Dr,,,Altamonte Springs,FL,32714
Orlando Dental Group,3.14,+14078550474,"General Dentistry,Cosmetic Dentists,Endodontists",7221 Chancery Ln,,,Orlando,FL,32809
Paradise Dental of Orlando,4.91,+14073704600,"Cosmetic Dentists,General Dentistry",8351 S John Young Pkwy,,,Orlando,FL,32819
Coast Dental,0.46,+14078512255,"General Dentistry,Orthodontists,Cosmetic Dentists",4401 S Orange Ave,Ste 106,,Orlando,FL,32806
"Dale A Rolando, DMD FAGD & Sue E Rolando, DMD",3.65,+14078987401,General Dentistry,4396 Lake Underhill Rd,,,Orlando,FL,32803
Bay Hill Family Dental,8.18,+14073517083,"General Dentistry,Cosmetic Dentists,Periodontists",6080 S Apopka Vineland Rd,,,Orlando,FL,32819
"Puig Elena C, DMD PA",3.59,+14078955600,General Dentistry,1600 Hillcrest St,,,Orlando,FL,32803
Lake Lucerne Lifestyle Dentistry,2.15,+14074254901,"Cosmetic Dentists,General Dentistry,Periodontists",112 S Lucerne Cir E,,,Orlando,FL,32801
Acosta Cosmetic & Family Dentistry,7.18,+14076454741,"General Dentistry,Cosmetic Dentists",2001 Lee Rd,Ste B,,Winter Park,FL,32789
Martin Orthodontics,4.81,+14078986711,Orthodontists,863 Outer Rd,,,Orlando,FL,32814
Behner Family Dentistry,11.13,+14075454151,"General Dentistry,Periodontists,Cosmetic Dentists",934 E Altamonte Dr,,,Altamonte Springs,FL,32701
Aspen Dental,11.01,+14072777773,"Oral Surgeons,General Dentistry,Cosmetic Dentists",1100 N Alafaya Trl,Ste 160,,Orlando,FL,32828
Magnolia Dental,11.38,+14072059585,"Cosmetic Dentists,Pediatric Dentists,Orthodontists",12014 E Colonial Dr,Ste 130,,Orlando,FL,32826
Gordy Family Dental,4.24,+14074221130,General Dentistry,1216 Edgewater,,,Orlando,FL,32804
Dentila,10.61,+14073807046,"General Dentistry,Periodontists,Cosmetic Dentists",422 S Alafaya Trl,Ste 27,,Orlando,FL,32828
Five Star Dental,7.73,+14072263350,General Dentistry,7800 W Sand Lake Rd,Ste 220,,Orlando,FL,32819
Thornton Dental Centre,3.53,+14076480000,General Dentistry,630 N Thornton Ave,,,Orlando,FL,32803
Bay Hill Family Dentistry,8.01,+14073517083,"General Dentistry,Cosmetic Dentists",6080 S Apopka Vineland Rd,,Bay Hill Family Dental,Orlando,FL,32819
Oral Hygiene Dental,3.87,+14079002980,"General Dentistry,Endodontists,Periodontists",1650 Sand Lake Rd,Ste 106,,Orlando,FL,32809
Greenberg Dental and Orthodontics,4.47,+14075140400,Orthodontists,4307 E Colonial Dr,,E Colonial Office,Orlando,FL,32803
"Michael P Marfori, DMD",9.84,+14078591418,Pediatric Dentists,4151 Hunters Park Ln,Ste 124,,Orlando,FL,32837
"Jerald W Grimes, DDS., LLC",10.86,+14076581111,General Dentistry,1525 S Alafaya Trl,Ste 103,,Orlando,FL,32828
Sage Dental of Windermere,7.02,+14074348344,"Cosmetic Dentists,General Dentistry,Orthodontists",5122 Dr Phillips Blvd,,,Orlando,FL,32819
FairWater Dental Group,6.64,+14076289091,General Dentistry,1221 Fairbanks Ave,,,Orlando,FL,32804
Central Florida Oral and Maxillofacial Surgery,3.5,+14078432261,"Oral Surgeons,Medical Spas",610 N Mills Ave,,,Orlando,FL,32803
"Sipp Randall William, DMD PA",6.38,+14076280111,General Dentistry,2715 W Fairbanks Ave,Ste 100,,Winter Park,FL,32789
Silver Star Dental Center,6.82,+14072911997,General Dentistry,5028 Silver Star Rd,,,Orlando,FL,32808
"Buchs Andre U, DMD",3.5,+14078432261,General Dentistry,610 N Mills Ave,,,Orlando,FL,32803
"Gerald M Levine, DMD",6.61,+14078500489,General Dentistry,3300 S Hiawassee Rd,Ste 101,,Orlando,FL,32835
Orlando Smiles,8.01,+14072698873,"Cosmetic Dentists,General Dentistry,Oral Surgeons",6068 S Apopka Vineland Rd,Ste 4,,Orlando,FL,32819
Sunshine Dental Group,3.03,+14072822313,"Cosmetic Dentists,General Dentistry",4656 E Michigan St,,,Orlando,FL,32812
Oral & Facial Surgery Center,7.86,+14073526301,"Oral Surgeons,General Dentistry,Cosmetic Dentists",7932 W Sand Lake Rd,Ste 109,,Orlando,FL,32819
Alafaya Dental Associates PA,11.89,+14073811960,"General Dentistry,Cosmetic Dentists",12231 E Colonial Dr,Ste 150,,Orlando,FL,32826
Bella Bella Family & Cosmetic Dentistry,21.36,+13522418471,"General Dentistry,Cosmetic Dentists",3185 Citrus Tower Blvd,,,Clermont,FL,34711
Greenberg Dental & Orthodontics,3.25,+14074825855,"Orthodontists,Pediatric Dentists,General Dentistry",4442 Curry Ford Rd,,,Orlando,FL,32812
Escott Orthodontics,5.01,+14076485511,Orthodontists,2511 Edgewater Dr,,,Orlando,FL,32804
"Haroldo J Otero, DMD",5.27,+14078967583,General Dentistry,2921 N Orange Ave,,,Orlando,FL,32804
Anderson and Moopen Orthodontics,2.79,+14076580280,Orthodontists,3150 S Conway Rd,,,Orlando,FL,32812
All in One Dentistry and Braces,15.34,+14073279566,"Cosmetic Dentists,General Dentistry,Pediatric Dentists",1122 E State Rd 434,Ste 1020,,Orlando,FL,32708
Lake Nona Orthodontic Specialists,12.37,+14072037967,"Orthodontists,General Dentistry",13832 Narcoossee Rd,Ste B101,,Orlando,FL,32832
Windermere Center For Dentistry,9.6,+14079091097,Cosmetic Dentists,401 Main St,Ste A,,Windermere,FL,34786
DellagioDentist.com,8.0,+14073514104,General Dentistry,8060 Via Dellagio Way,,,Orlando,FL,32819
"Jeffrey Pacha, DDS",8.83,+14076471346,"General Dentistry,Cosmetic Dentists,Endodontists",320 N Maitland Ave,Ste B,,Maitland,FL,32751
"David F Sutton,DMD, PA",6.38,+14075783093,Dentists,2183 S Hiawassee Rd,Ste 105,,Orlando,FL,32835
Castro Axel Dr,11.02,+14073807046,General Dentistry,12301 Lake Underhill Rd,,,Orlando,FL,32828
Aesthetic & General Dentistry,10.04,+14072515100,"General Dentistry,Cosmetic Dentists,Endodontists",14009 Egret Tower Dr,,,Orlando,FL,32837
"Michelle J Charles, DDS",5.2,+14072777500,General Dentistry,544 N Semoran Blvd,,,Orlando,FL,32807
Coast Dental - Metro West,5.84,+14072938324,"General Dentistry,Endodontists,Cosmetic Dentists",1603 S Hiawassee Rd,Ste 135,,Orlando,FL,32835
Jose Marcano,0.72,+14078551471,"Cosmetic Dentists,General Dentistry",4861 S Orange Ave,Ste A,,Orlando,FL,32806
Orlando Family Dental,6.61,+14072959096,"Endodontists,Cosmetic Dentists,Oral Surgeons",3300 S Hiawassee Rd,Ste 101,,Orlando,FL,32835
"Murad Thakur, DDS",4.07,+14072757703,"Cosmetic Dentists,Oral Surgeons",5480 Curry Ford Rd,,,Orlando,FL,32812
Pine Dental Health,6.76,+14072909568,General Dentistry,1429 N Pine Hills Rd,,,Orlando,FL,32808
Hunter's Creek Dental Center,10.09,+14074597176,"General Dentistry,Cosmetic Dentists,Endodontists",3924 Town Center Blvd,,,Orlando,FL,32837
Metro West Village Family Dentistry,6.45,+14075783734,"Periodontists,Orthodontists,Cosmetic Dentists",2295 S Hiawassee Rd,Ste 216,,Orlando,FL,32835
Heidrich Paul D Jr MD,7.16,+14076444441,General Dentistry,1950 Mizell Ave,,,Winter Park,FL,32792
Amber Dental Care,5.93,+14072820134,General Dentistry,1009 Amber Rd,,,Orlando,FL,32807
Premiere Orthodontics,10.56,+14073813335,Orthodontists,448 S Alafaya Trl,Ste 10,,Orlando,FL,32828
Advanced Dental Care of Orlando,10.99,+14075453810,"Orthodontists,General Dentistry,Cosmetic Dentists",12131 S Apopka Vineland Rd,,,Orlando,FL,32836
Greenberg Dental & Orthodontics,5.12,+14072927373,"Oral Surgeons,Orthodontists,General Dentistry",4732 S Kirkman Rd,,,Orlando,FL,32811
"Gustavo De Oliveira, DMD PA",2.15,+14074254901,"Cosmetic Dentists,General Dentistry",112 S Lucerne Cir E,,,Orlando,FL,32801
Natural Smiles,8.66,+14076778888,"General Dentistry,Cosmetic Dentists",4063 N Goldenrod Rd,Ste 4,,Winter Park,FL,32792
"Youssef Nabil, DMD",1.07,+14074269933,"Cosmetic Dentists,General Dentistry",2116 S Orange Ave,,,Orlando,FL,32806
Orlando Endodontic Specialists - Waterford Lakes,11.02,+14075819515,Endodontists,12301 Lake Underhill Rd,Ste 104,,Orlando,FL,32828
Stoneybrook Dental,14.72,+14078770141,"Cosmetic Dentists,Pediatric Dentists,Periodontists",15502 Stoneybrook W Pkwy,Ste 126,,Winter Garden,FL,34787
"Carlos R Colon-Bengoa, DDS FAGD PA",9.93,+14075235400,"General Dentistry,Pediatric Dentists,Cosmetic Dentists",1151 Blackwood Ave,Ste130,,Ocoee,FL,34761
Family First Dental,14.73,+14078466353,"Cosmetic Dentists,General Dentistry,Endodontists",820 Emmett St,,,Orlando,FL,34741
Designer Smiles,5.29,+14079881563,"General Dentistry,Cosmetic Dentists",316 Groveland St,,,Orlando,FL,32804
"Kanter Keith G, DDS",0.72,+14078512996,Endodontists,4861 S Orange Ave,Ste C,,Orlando,FL,32806
"Maria Kashlak, DMD",8.01,+14078760290,"General Dentistry,Periodontists,Cosmetic Dentists",6068 S Apopka Vineland Rd,Ste 6,,Orlando,FL,32819
Colonialtown Dental,3.47,+14074223811,"General Dentistry,Periodontists,Cosmetic Dentists",602 N Thornton Ave,,,Orlando,FL,32803
"Javier E Martinez, DDS MS",10.23,+14076568080,"General Dentistry,Cosmetic Dentists",2702 Rew Cir,Ste B,,Ocoee,FL,34761
Smile Direct Club,4.85,+14075024037,"Orthodontists,Cosmetic Dentists",2211 Edgewater Dr,,,Orlando,FL,32804
Exclusive Dentistry,8.29,+14076584060,"General Dentistry,Cosmetic Dentists",250 N Alafaya Trl,Ste 125,,Orlando,FL,32825
Coast Dental,6.6,+14072939573,"General Dentistry,Endodontists,Orthodontists",6432 W Colonial Dr,,,Orlando,FL,32818
Grace Dental,0.89,+14078514588,General Dentistry,4961 S Orange Ave,,,Orlando,FL,32806
Metrowest Family Dental,5.95,+14072954600,General Dentistry,6429 Raleigh St,,,Orlando,FL,32835
Coast Dental,4.35,+14072280132,"General Dentistry,Orthodontists,Cosmetic Dentists",3907 E Colonial Dr,,,Orlando,FL,32803
"Paul Helsby, DDS",8.7,+14076781601,General Dentistry,,,,Winter Park,FL,32792
Trinity EndoGroup,6.43,+14075211977,Endodontists,6996 Piazza Grande Ave,Ste 204,,Orlando,FL,32835
Diaz Orthodontics,9.84,+14072332920,Orthodontists,4151 Hunters Park Ln,Ste 148,,Orlando,FL,32837
Sage Dental of Dr. Phillips,7.29,+14077810386,"General Dentistry,Cosmetic Dentists,Endodontists",7341 W Sand Lake Rd,,,Orlando,FL,32819
Altamonte Dental Associates,10.97,+14077748834,"Cosmetic Dentists,General Dentistry,Periodontists",195 S Westmonte Dr,Ste 1112,,Orlando,FL,32714
East Orlando Dental,11.1,+14072822101,"General Dentistry,Cosmetic Dentists,Pediatric Dentists",11780 E Colonial Dr,,,Orlando,FL,32817
Winter Park Smiles,7.46,+14076781601,"General Dentistry,Cosmetic Dentists,Prosthodontists",2100 Aloma Ave,Ste 200,,Winter Park,FL,32792
Americana Family Dentistry,2.09,+14078500133,General Dentistry,2067 Americana Blvd,,,Orlando,FL,32839
"John Gammichia, DMD FAGD",15.99,+14078894868,"Cosmetic Dentists,General Dentistry,Endodontists",450 Errol Pkwy,,,Apopka,FL,32712
Oviedo Premier Dental,15.85,+14079776464,General Dentistry,1445 E Mitchell Hammock Rd,,,Oviedo,FL,32765
Lancaster Dental,3.56,+14078556616,General Dentistry,847 Sand Lake Rd,,,Orlando,FL,32809
Central Florida Cosmetic & Family Dentistry,11.04,+14074839990,General Dentistry,3268 Greenwald Way N,,,Kissimmee,FL,34741
Sage Dental of Waterford Lakes,10.96,+13212818555,"Cosmetic Dentists,Orthodontists,Endodontists",688 N Alafaya Trl,Ste 107,,Orlando,FL,32828
Winter Garden Smiles,13.14,+14076145955,"Pediatric Dentists,General Dentistry,Cosmetic Dentists",1291 Winter Garden Vineland Rd,Ste 140,,Winter Garden,FL,34787
Zargari John DDS PA,10.17,+14076540070,General Dentistry,2650 Maguire Rd,,,Ocoee,FL,34761
Your Downtown Dentistry,3.4,+14075454133,"Pediatric Dentists,Periodontists,Cosmetic Dentists",611 N Magnolia Ave,,,Orlando,FL,32801
Celebration Dental Group,5.45,+14073519704,"Periodontists,Orthodontists,General Dentistry",6001 Vineland Rd,,,Orlando,FL,32819
Innovative Endodontics,7.96,+14074340305,Endodontists,7352 Stonerock Cir,Ste B,,Orlando,FL,32819
"Dann Carl IV, DDS, MS",8.96,+14078943271,Orthodontists,7221 Aloma Ave,Ste 100,,Orlando,FL,32803
Park Dental,9.68,+14076718901,"General Dentistry,Cosmetic Dentists,Periodontists",6001 Brick Ct,Ste 101,,Winter Park,FL,32792
East Orange Endodontics,9.5,+14077047863,Endodontists,10800 Dylan Loren Cir,Ste 103,,Orlando,FL,32825
East West Dental Orlando,4.87,+14072755844,"Pediatric Dentists,Orthodontists,Cosmetic Dentists",201 S Semoran Blvd,,,Orlando,FL,32807
Alafaya Dental Care,13.42,+14073668989,"Oral Surgeons,General Dentistry,Cosmetic Dentists",2984 Alafaya Trl,Ste 2030,,Oviedo,FL,32765
Lemieux Peter G DMD,6.03,+14076442700,General Dentistry,1185 Orange Ave,,,Winter Park,FL,32789
"Jennifer Ortega, DMD",7.33,+14076453636,"General Dentistry,Periodontists,Cosmetic Dentists",201 Moray Ln,Ste A,,Winter Park,FL,32792
"Fay Hu General Dentistry: Fay Hu, D.M.D.",6.65,+14074872091,"General Dentistry,Oral Surgeons,Cosmetic Dentists",800 W Morse Blvd,Ste 3B,,Winter Park,FL,32789
Main Street Children's Dentistry And Orthodontics Of Winter Park,7.09,+14077920637,"Pediatric Dentists,General Dentistry",501 N Orlando Ave,Ste 233,,Winter Park,FL,32789
Carlyle Orthodontics,6.76,+14074479060,Orthodontists,8255 Lee Vista Blvd,,,Orlando,FL,32829
"Angel Isaac, DDS",8.01,+14073516907,"Oral Surgeons,Periodontists",6068 S Apopka Vineland Rd,Ste 2,,Orlando,FL,32819
"David J Blue, DMD",8.7,+14076712300,"General Dentistry,Endodontists,Cosmetic Dentists",3025 Aloma Ave,,,Winter Park,FL,32792
"Danielson Richard R, DDS",3.83,+14078510784,"General Dentistry,Periodontists",1325 Florida Mall Ave,,,Orlando,FL,32809
Smile Direct Club,5.37,+13213321206,"Orthodontists,Cosmetic Dentists",7350 Futures Dr,Ste 22,,Orlando,FL,32809
Smile Design Orange Blossom Trail,8.14,+14078900873,"Pediatric Dentists,Endodontists,Cosmetic Dentists",12329 S Orange Blossom Trl,,,Orlando,FL,32837
Lakeside Family Dentistry,12.63,+14076568545,Dentists,13402 Summerport Village Pkwy,Ste 502,,Windermere,FL,34786
Bright Now! Dental,11.3,+13213540905,"General Dentistry,Orthodontists,Cosmetic Dentists",785 North Alafaya Trl,,,Orlando,FL,32828
Concord Dental,3.46,+14078963393,General Dentistry,1204 E Concord St,,,Orlando,FL,32803
Omega Dental Group PA,8.9,+14076711017,"General Dentistry,Cosmetic Dentists",7200 Aloma Ave,Ste D,Tangerine Professional Center,Winter Park,FL,32792
Orofacial & Dental Implant Surgery,7.96,+14073510575,Oral Surgeons,7352 Stonerock Cir,,,Orlando,FL,32819
Emergency Dentistry,2.62,+18882449997,General Dentistry,207 S Magnolia Ave,,,Orlando,FL,32801
OBT  Dental,6.28,+14078578585,"General Dentistry,Orthodontists,Cosmetic Dentists",9753 S Orange Blossom Trl,,,Orlando,FL,32837
"Star Dental, DDS",4.11,+14073813377,General Dentistry,4501 S Semoran Blvd,,,Orlando,FL,32822
Advanced Dental Care of Ocoee,9.82,+14074775004,"General Dentistry,Cosmetic Dentists,Endodontists",1231 Blackwood Ave,,,Ocoee,FL,34761
South Goldenrod Dental Care,6.04,+14072776100,"Cosmetic Dentists,General Dentistry",680 S Goldenrod Rd,,,Orlando,FL,32822
Dental Designs at Lakeside Village,11.83,+14076148796,"General Dentistry,Endodontists,Cosmetic Dentists",7828 Winter Garden Vineland Rd,,,Windermere,FL,34786
"Jolyon A Lamwatt, DMD",8.01,+14073529687,General Dentistry,6068 S Apopka Vineland Rd,Ste 7,,Orlando,FL,32819
"Matthew E. Scarpitti, DDS, PA",10.87,+14076581111,"General Dentistry,Cosmetic Dentists,Endodontists",1525 S Alafaya Trl,Ste 103,,Orlando,FL,32828
East Colonial Dental Group,4.55,+14072282251,"General Dentistry,Periodontists",4401 E Colonial Dr,Ste 108,,Orlando,FL,32803
Mobile Dental ER,5.77,+14079550743,"General Dentistry,Orthodontists,Cosmetic Dentists",,,,Orlando,FL,32819
Trevisani Oral Surgery,9.91,+14077649900,"Oral Surgeons,Cosmetic Dentists",11317 Lake Underhill Rd,Ste 200,,Orlando,FL,32828
"Moody & Mikulka, DDS",4.59,+14078394822,"Oral Surgeons,General Dentistry,Periodontists",5385 Conroy Rd,Ste 101,,Orlando,FL,32811
Eastwood Dental,10.88,+14072490818,Cosmetic Dentists,1549 S Alafaya Trl,Ste 300,,Orlando,FL,32828
Cosmetic & Family Dentistry,6.59,+14074400692,General Dentistry,6900 Turkey Lake Rd,Ste 1-9,,Orlando,FL,32819
Clermont Family Dentistry,21.64,+13522421763,General Dentistry,12344 Roper Blvd,,,Clermont,FL,34711
Starbase Dental,5.91,+14075320192,General Dentistry,6735 Conroy Windermere Rd,Ste 202,,Orlando,FL,32835
Dental Care at Dr Phillips,7.5,+14073451442,"General Dentistry,Cosmetic Dentists",7051 Dr Phillips Blvd,Ste 10,,Orlando,FL,32819
All Smiles Dental,9.97,+14075210081,General Dentistry,1148 Kelton Ave,,,Ocoee,FL,34761
"Hyung Jun Kong, DDS - Prime Dental",8.66,+13219728870,"General Dentistry,Endodontists,Cosmetic Dentists",2828 Casa Aloma Way,Ste 700,,Winter Park,FL,32792
Desai Dental,5.24,+14078983471,General Dentistry,2909 N Orange Ave,Ste 202,,Orlando,FL,32804
Kidz Choice Pediatric Dentistry,3.38,+14074222617,Pediatric Dentists,508 N Mills Ave,Ste B,,Orlando,FL,32803
Waterford Lakes Dental,10.98,+14073826122,General Dentistry,316 N Alafaya Trl,,,Orlando,FL,32828
"Milton A Clement, DDS",3.47,+14074223811,"General Dentistry,Periodontists,Cosmetic Dentists",602 N Thornton Ave,,,Orlando,FL,32803
Coast Dental - Tuscawilla,11.74,+14076964474,"General Dentistry,Cosmetic Dentists,Orthodontists",5285 Red Bug Lake Rd,Ste 105,,Winter Springs,FL,32708
Universal Dental Center,6.23,+14072480484,"General Dentistry,Orthodontists,Cosmetic Dentists",6000 Turkey Lake Rd,Ste 109,,Orlando,FL,32819
Lake Forest Family Dentistry,21.46,+14073289398,General Dentistry,5264 W State Rd 46,Ste 1000,,Sanford,FL,32771
Halo Dental,3.75,+14078961225,General Dentistry,743 N Ferncreek Ave,,,Orlando,FL,32803
Yes! Dental Associates of Florida,13.96,+14078478000,"Pediatric Dentists,Endodontists,General Dentistry",701 E Oak St,Ste B,,Orlando,FL,34744
Baptiste Orthodontics,7.9,+14072172927,Orthodontists,8907 Conroy Windermere Rd,Ste E2,,Orlando,FL,32835
"Lawrence D Mund, DDS",6.51,+14072753399,"Oral Surgeons,Cosmetic Dentists",2206 S Chickasaw Trl,,,Orlando,FL,32825
"C Scott Schmitt, DMD MS",10.33,+14074784960,"Cosmetic Dentists,General Dentistry",707 Pennsylvania Ave,Ste 1100,,Altamonte Springs,FL,32701
Beltran Periodontics,5.86,+14077814188,Periodontists,1507 S Hiawassee Rd,Ste 201,,Orlando,FL,32835
Colonial Drive Family Dentistry,9.75,+14072956993,"General Dentistry,Cosmetic Dentists",10169 W Colonial Dr,,,Ocoee,FL,34761
Dimauro Michael P DDS PA,8.09,+14073524800,Pediatric Dentists,7424 Docs Grove Cir,,,Orlando,FL,32819
Blandon Dental DDS PA,10.61,+14073816000,General Dentistry,422 S Alafaya Trl,Ste 18,,Orlando,FL,32828
"David M Hinton, DDS ,PA",7.55,+14073630365,Cosmetic Dentists,7575 Dr Phillips Blvd,,,Orlando,FL,32819
Kissimmee Family Dentistry,14.01,+14078707404,"General Dentistry,Cosmetic Dentists",1111 Person St,,,Kissimmee,FL,34741
Rodriguez-Viera Arelis DMD PA,0.65,+14074259333,Pediatric Dentists,2883 Delaney Ave,,,Orlando,FL,32806
"James E Hardy, DMD PA - Health-Centered Dentistry",7.11,+14076783399,Cosmetic Dentists,213 Edinburgh Dr,,,Winter Park,FL,32792
Pranati S. Chokshi DMD,10.73,+14076549905,"General Dentistry,Endodontists,Cosmetic Dentists",11157 W Colonial Dr,,,Ocoee,FL,34761
Acecare Dental & Orthodontics,8.91,+14079607999,"General Dentistry,Cosmetic Dentists,Orthodontists",1555 Howell Branch Rd,Ste A4,,Winter Park,FL,32789
Econ Dental,9.48,+13219728312,"General Dentistry,Periodontists,Cosmetic Dentists",3823 N Econlockhatchee Trl,Unit D-4,,Orlando,FL,32817
True Health,11.36,+14073228645,"General Dentistry,Pediatricians,Community Service/Non-Profit",11881A E Colonial Dr,,,Orlando,FL,32826
Hancock Village Dental,20.36,+13529895815,"General Dentistry,Cosmetic Dentists,Endodontists",2560 E Hwy 50,Ste 103,,Clermont,FL,34711
The Dental Society of Greater Orlando,3.73,+14078949798,General Dentistry,800 N Mills Ave,,,Orlando,FL,32803
Celebration Pediatric Dentistry,17.52,+14075664646,Pediatric Dentists,1530 Celebration Blvd,Ste 411,Celebration Pediatric Dentistry,Celebration,FL,34747
"Mark F Halek, DDS PA",12.19,+14077744433,"General Dentistry,Cosmetic Dentists",660 Executive Park Ct,Ste 1600,Spa Touch Dentistry,Apopka,FL,32703
Distinctive Dentistry on Maitland,10.28,+14078309800,"General Dentistry,Cosmetic Dentists",609 Maitland Ave,Ste 1,,Altamonte Springs,FL,32701
Sage Dental of University,12.24,+14077810449,"Cosmetic Dentists,Oral Surgeons,Endodontists",12250 Strategy Blvd,Ste 437,,Orlando,FL,32817
Central Florida Orthodontic Specialists,3.84,+14078094448,Orthodontists,730 Sand Lake Rd,Ste 124,,Orlando,FL,32809
Your Oviedo Dentist,15.42,+14079779888,"General Dentistry,Cosmetic Dentists",425 Tutus Point,,,Oviedo,FL,32765
Advanced Dental Care at RDV Sportsplex,9.31,+13215942624,"Cosmetic Dentists,General Dentistry,Endodontists",8701 Maitland Summit Blvd,,,Orlando,FL,32810
Glover Dental Group Cosmetic and Implant Dentistry,5.86,+14075670941,"Cosmetic Dentists,General Dentistry,Cosmetic Surgeons",1507 S Hiawassee Rd,Ste 209,,Orlando,FL,32835
"Bliss Robert M, DMD",13.32,+14073591274,"General Dentistry,Cosmetic Dentists,Endodontists",2990 Bliss Cv,Ste 1000,,Oviedo,FL,32765
Orlando Periodontics & Implants,11.03,+14072773300,"Periodontists,Oral Surgeons,Cosmetic Dentists",12301 Lake Underhill Rd,Ste 107,,Orlando,FL,32828
"Maxine Moncrieffe, DDS",9.43,+14072074416,Cosmetic Dentists,10843 Dylan Loren Cir,,Orlando Dentist Family & Cosmetic,Orlando,FL,32825
Dr Maritza De Jesus,10.05,+14078260111,Dentists,14055 Town Loop Blvd,,,Orlando,FL,32837
Greenberg Dental & Orthodontics,8.17,+14079794881,"General Dentistry,Orthodontists,Cosmetic Dentists",5824 N Orange Blossom Trl,,,Orlando,FL,32810
"Arias Charles A, DDS",0.71,+14078413898,Oral Surgeons,2868 S Osceola Ave,,,Orlando,FL,32806
Pediatric Dental Group,8.68,+14077377767,Pediatric Dentists,9161 Narcoossee Rd,Ste 101B,,Orlando,FL,32827
Wekiva Dental,14.78,+14078697333,"Cosmetic Dentists,Oral Surgeons,General Dentistry",686 N Hunt Club Blvd,,,longwood,FL,32779
"Mayo Nathan, DDS",9.24,+14076714445,"Oral Surgeons,General Dentistry,Endodontists",429 Lake Howell Rd,,,Maitland,FL,32751
Innovative Dental & Orthodontics,16.29,+14075424580,"Orthodontists,Cosmetic Dentists,Prosthodontists",1884 W County Rd 419,Ste 1010,,Orlando,FL,32765
"Amer Alshareef, DDS - Maitland Avenue Dental",10.28,+14078311203,"Cosmetic Dentists,General Dentistry,Orthodontists",604 Maitland Ave,,,Altamonte Springs,FL,32701
Ross Taddeo Orthodontics,10.93,+14074823700,Orthodontists,1561 S Alafaya Trl,Ste 100,,Orlando,FL,32828
"Nick Brand, DDS",17.46,+14078623344,"General Dentistry,Cosmetic Dentists,Orthodontists",1325 S International Pkwy,Ste 1201,,Lake Mary,FL,32746
"St Cloud Smiles, Inc.",19.2,+14075563969,General Dentistry,2050 Old Hickory Tree Rd,,,St. Cloud,FL,34769
Winter Springs Dentistry,15.18,+14073272015,"Orthodontists,Oral Surgeons,Endodontists",1196 E State Rd 434,,,Winter Springs,FL,32708
"Schmitt, Midkiff and Bilancione",8.41,+14076472405,"General Dentistry,Cosmetic Dentists",520 S Maitland Ave,,,Maitland,FL,32751
Grand Prix Smiles,8.03,+14079090338,"General Dentistry,Cosmetic Dentists,Endodontists",4848 S Apopka Vineland Rd,Ste 218,,Orlando,FL,32819
Summerlin Doyle L DMD,13.43,+14078893553,General Dentistry,1414 E Semoran Blvd,,,Apopka,FL,32703
Accent Orthodontics,5.86,+14077814185,Orthodontists,1507 S Hiawassee Rd,Ste 202,,Orlando,FL,32835
"Vito Michael, DDS",10.22,+14079059888,General Dentistry,2713 S Maguire Rd,,,Ocoee,FL,34761
Family Dentistry & Dental Specilsts Grp BDS MDS Ms,10.26,+14078560208,General Dentistry,4250 Town Center Blvd,,,Orlando,FL,32837
Orlando Pediatric Dentistry & Orthodontics,4.92,+14078985437,"Pediatric Dentists,Orthodontists",907 Outer Rd,Ste A,,Orlando,FL,32814
Family and Cosmetic Dentistry of Orlando,14.05,+14072499292,General Dentistry,425 S Avalon Park Blvd,Ste 500,,Orlando,FL,32829
Chain of Lakes Cosmetic & Family Denistry,10.02,+14078766708,"General Dentistry,Cosmetic Dentists,Endodontists",1805 Maguire Rd,Ste 159,,Windermere,FL,34786
"Christine Nguyen, DDS PA",5.77,+14076294077,Dentists,1330 S Orlando Ave,,,Winter Park,FL,32789
Bright Now! Dental,11.26,+14076700557,"General Dentistry,Orthodontists,Cosmetic Dentists",5761 US Highway 17/92,Stes 1001 & 1005,Ste 1 & 2,Casselberry,FL,32707
Greenberg Dental & Orthodontics,7.14,+14076289877,"Orthodontists,General Dentistry,Pediatric Dentists",2200 Lee Rd,,,Winter Park,FL,32789
Orofacial & Dental Implant Surgery,13.95,+14073436200,Oral Surgeons,605 Oak Commons Blvd,,,Kissimmee,FL,34741
Kandor Dental,11.6,+14075424935,"Cosmetic Dentists,General Dentistry",5515 Vista View Way,,,Orlando,FL,32765
"Don M Preble, DMD - Oral Implantology Associates",11.6,+14078314008,"General Dentistry,Oral Surgeons",499 E Central Pkwy,Ste 220,,Altamonte Springs,FL,32701
Waterford Center Family and Cosmetic Dentistry,11.44,+14073826455,"General Dentistry,Cosmetic Dentists",12780 Waterford Lakes Pkwy,Ste 105,,Orlando,FL,32828
Sage Dental of Winter Park,6.58,+14076913447,"Orthodontists,Oral Surgeons,Endodontists",110 S Orlando Ave,Ste 10,,Winter Park,FL,32789
"Paul F. Hettinger, DMD",10.54,+14072900290,"General Dentistry,Cosmetic Dentists",1530 Citrus Medical Ct,Ste 102,,Ocoee,FL,34761
Celebration Dental Group,14.75,+14075662222,"Oral Surgeons,Periodontists,Endodontists",2940 Mallory Cir,,,Kissimmee,FL,34747
Glowing Smile Dental Studio,9.61,+14079852885,"General Dentistry,Cosmetic Dentists,Endodontists",10231 E Colonial Dr,Ste A,,Orlando,FL,32817
Springs Family Dentistry,12.94,+14078622299,"General Dentistry,Cosmetic Dentists,Pediatric Dentists",2855 W State Rd 434,Ste 1031,,Longwood,FL,32779
"McNamara Charles R, DMD",1.87,+14078431670,Dentists,1100 Lucerne Ter,,,Orlando,FL,32806
Williams Christopher J DMD,7.26,+14076290075,Oral Surgeons,201 N Lakemont Ave,Ste 2200,,Winter Park,FL,32792
"James F Outlaw, DDS",7.75,+14076716506,"Cosmetic Dentists,General Dentistry",2550 Aloma Ave,,,Winter Park,FL,32792
"Harmini Sidhu, DDS",2.72,,Oral Surgeons,,,,Orlando,FL,32801
I Beliv Dental Studio,21.32,+18634203166,General Dentistry,7700 Lake Wilson Rd,,,Davenport,FL,33896
Towncare Dental of Winter Park,6.31,+14079014351,"General Dentistry,Cosmetic Dentists",1713 W Fairbanks Ave,,,Winter Park,FL,32789
"Carl Bilancione, DMD",8.41,+14076472405,"General Dentistry,Cosmetic Dentists",520 S Maitland Ave,,"Schmitt, Midkiff & Bilancione General Dentistry",Maitland,FL,32751
Glosson Charles R DMD,3.3,+14078438180,Endodontists,430 N Mills Ave,Ste 2,,Orlando,FL,32803
"Bryan D Oeth, DMD",19.06,+14078058808,"Cosmetic Dentists,General Dentistry,Endodontists",737 Stirling Center Pl,Ste 1801,,Lake Mary,FL,32746
Smile Center of Orlando,10.46,+14076788848,General Dentistry,3710 Aloma Ave,,,Winter Park,FL,32792
"Kirk K Cohil, DDS PA",12.99,+14078899682,"General Dentistry,Cosmetic Dentists,Pediatric Dentists",2525 E Semoran Blvd,,,Apopka,FL,32703
Premier Dentistry of Oviedo,13.74,+14078459000,"General Dentistry,Cosmetic Dentists",101 Lake Hayes Rd,Ste 101,,Oviedo,FL,32765
"Claudio Buonfiglio, DMD, PA",10.76,+14077670633,General Dentistry,703 Magnolia Dr,,,Altamonte Springs,FL,32701
Morales Ofilio J DMD,11.44,+14073805855,General Dentistry,12780 Waterford Lakes Pkwy,,,Orlando,FL,32828
Waterford Family Dental DMD,11.17,+14072071800,General Dentistry,12466 Lake Underhill Rd,,,Orlando,FL,32828
Beattie Family Orthodontics,4.97,+14078982901,Orthodontists,960 Lake Baldwin Ln,,,Orlando,FL,32814
Morra Michael J DMD,6.99,+14073822282,Dentists,6415 S Chickasaw Trl,,,Orlando,FL,32829
"Hodgins Zachary W, DMD PA",5.86,+14076473146,Dentists,1350 Orange Ave,Ste 106,,Winter Park,FL,32789
"Craig A Murray, DDS",17.99,+14079575363,"General Dentistry,Cosmetic Dentists",4301 Neptune Rd,,,St. Cloud,FL,34769
"Suzanne N Davidson,  DMD",13.19,+14078847555,"General Dentistry,Endodontists,Cosmetic Dentists",2199 E Semoran Blvd,,,Apopka,FL,32703
Marris Orthodontics,11.44,+14072753330,Orthodontists,12780 Waterford Lakes Pkwy,Ste 130,,Orlando,FL,32828
Ocoee Dental Health,10.44,+14078770333,"Cosmetic Dentists,General Dentistry",10815 W Colonial Dr,,,Ocoee,FL,34761
"Schamp M Rene, DDS",6.31,+14076445627,Oral Surgeons,1435 W Fairbanks Ave,,,Winter Park,FL,32789
"Acuna Edgar S, DMD",6.24,+14076476261,Cosmetic Dentists,1100 N Kentucky Ave,,,Winter Park,FL,32789
Reid Robert M DDS,10.93,+14078311819,General Dentistry,130 Oxford Rd,,,Fern Park,FL,32730
"Helsby Kathy , DDS",8.7,,Oral Surgeons,,,,Orlando,FL,32792
Pediatric Dentistry of Central Florida,9.77,+14076282286,"Pediatric Dentists,Orthodontists",1650 N Maitland Ave,,,Maitland,FL,32751
"Michael Abufaris, DDS",7.26,+14076296400,"Oral Surgeons,Periodontists",201 N Lakemont Ave,Ste 600,,Winter Park,FL,32792
Emergency Dental Care USA,11.04,+14075056504,"Endodontists,Oral Surgeons,General Dentistry",745 Orienta Ave,Ste 1071,,Altamonte Springs,FL,32701
"Sidaoui Fouad, DDS",6.53,+14079030320,Oral Surgeons,7259 International Dr,,,Orlando,FL,32819
Greenberg Dental Associates,8.44,+14076710001,Orthodontists,3727 N Goldenrod Rd,Ste 108,,Winter Park,FL,32792
Advanced Dental Care of Longwood,13.46,+13215942628,"Cosmetic Dentists,General Dentistry,Endodontists",505 Wekiva Springs Rd,Ste 100,,Longwood,FL,32779
Avalon Dental,12.38,+14072811119,"General Dentistry,Cosmetic Dentists",12950 E Colonial Dr,,,Orlando,FL,32826
Lake Mary Family Dentistry,17.38,+14078623344,"General Dentistry,Cosmetic Dentists",1325 S International Pkwy,Ste 1201,,Lake Mary,FL,32746
"Decantis Richard E, DDS",15.17,+14073660391,"Oral Surgeons,General Dentistry",475 W Broadway St,Ste 3,,Oviedo,FL,32765
"Healthy Smiles of Orlando: Akmal Ahmed, DDS",19.19,+14077904181,"Cosmetic Dentists,General Dentistry,Pediatric Dentists",946 International Pkwy,Ste 1550,,Lake Mary,FL,32746
Smile Design Dentistry-Casselberry,9.32,+14077089946,"General Dentistry,Cosmetic Dentists,Pediatric Dentists",1455 State Rd 436,Ste 101,,Casselberry,FL,32707
All Smiles Family Dental,15.88,+14078898300,General Dentistry,1140 Rock Springs Rd,,,Apopka,FL,32712
Kissimmee Dental,13.24,+14073909113,"General Dentistry,Cosmetic Dentists,Prosthodontists",2916 Vineland Rd,,,Kissimmee,FL,34746
Reflections Cosmetic & Family Dentistry,11.02,+14078470100,"General Dentistry,Cosmetic Dentists",3292 Greenwald Way N,,,Kissimmee,FL,34741
"Mainak Patel, DMD",8.18,+14076781400,"Cosmetic Dentists,General Dentistry",6504 University Blvd,,,Winter Park,FL,32792
All About Smiles,3.86,+14078556305,Orthodontists,1650 Sand Lake Rd,Ste 116,,Orlando,FL,32809
"William K. Fravel, DMD, PA",9.82,+14076560001,Orthodontists,1291 Blackwood Ave,,,Ocoee,FL,34761
Anderson Family Dental,8.86,+14076445454,"General Dentistry,Cosmetic Dentists,Endodontists",1431 Howell Branch Rd,,,Winter Park,FL,32789
South Lake Dental,20.97,+13522420912,"General Dentistry,Cosmetic Dentists,Pediatric Dentists",533 Cagan Park Ave,Ste 307,,Clermont,FL,34714
Family Dental Clinic,10.07,+14074828072,Dentists,10691 E Colonial Dr,,,Orlando,FL,32817
Central Florida Endodontics,3.3,+14078438180,Endodontists,430 North Mills Ave,Ste 2,,Orlando,FL,32803
All Aspects Dental Group,3.96,+14078496056,Dentists,2130 W Colonial Dr,,,Orlando,FL,32804
Azalea Park Centra Care,4.71,+14072770550,"Urgent Care,Medical Centers",509 South Semoran Blvd,,,Orlando,FL,32807
Charles A Arias DDS,11.01,+14073826122,Oral Surgeons,316 N Alafaya Trl,,,Orlando,FL,32828
Winter Park Periodontist,7.52,+14076474180,General Dentistry,2225 Glenwood Dr,,,Winter Park,FL,32792
Dental Center of Orange,9.83,+13868371437,General Dentistry,4151 Hunter's Park Ln,Ste 140,,Orlando,FL,32837
Plaza North Dentistry,11.49,+14073371112,"General Dentistry,Cosmetic Dentists,Periodontists",385 Douglas Ave,Ste 2450,,Altamonte Springs,FL,32714
Champions Gate Dentistry,22.09,+14074792018,"General Dentistry,Cosmetic Dentists,Endodontists",8225 Champions Gate Blvd,,,Champions Gate,FL,33896
"McIntosh David L, DMD",8.41,+14076448786,Orthodontists,520 S Maitland Ave,,,Maitland,FL,32751
Towncare Dental,7.09,+14079014351,General Dentistry,1713 West Fairbanks Avenue,,,Winter Park,FL,32789
Celebration Dental Group,16.19,+14075662222,General Dentistry,741 Front St,Ste 310,,Celebration,FL,34747
Central Florida Periodontics & Implantology,7.19,+14076472295,Periodontists,2295 Lee Rd,,,Winter Park,FL,32789
Aspen Dental,11.11,+14076700020,"Oral Surgeons,General Dentistry,Cosmetic Dentists",410 E Altamonte Dr,Ste 1040,,Altamonte Springs,FL,32701
Arias Charles DDS,9.61,+14072777711,Oral Surgeons,10231 E Colonial Dr,,,Orlando,FL,32817
"Brian Ramski, DMD",13.18,+14079059965,"Oral Surgeons,Cosmetic Dentists,General Dentistry",213 S Dillard St,Ste 140,BR Dental,Winter Garden,FL,34787
Barinas Dental Associates,11.43,+14075305881,"General Dentistry,Cosmetic Dentists,Periodontists",2834 E Osceola Pkwy,,,Kissimmee,FL,34743
Windermere Pediatric Dentistry & Orthodontics,8.18,+14072703997,Pediatric Dentists,4769 The Grove Dr,Ste 118,,Windermere,FL,34786
Douglas T Andrews DMD,14.5,+14078477997,General Dentistry,316 N John Young Pkwy,Ste 1,,Kissimmee,FL,34741
"Dropkin Stuart, DMD PA",5.89,+14076477883,General Dentistry,1355 Orange Ave,Ste 4,,Winter Park,FL,32789
Bright Now! Dental,12.7,+14072874660,"General Dentistry,Orthodontists,Cosmetic Dentists",3017 Daniels Rd,Ste 108,,WInter Garden,FL,34787
Sage Dental of The Loop,11.33,+14072794335,"Orthodontists,Oral Surgeons,Endodontists",1188 W Osceola Pkwy,,,Kissimmee,FL,34741
"Richard S Rogers, DDS",12.01,+14078626090,"General Dentistry,Cosmetic Dentists",709 Douglas Ave,,,Altamonte Springs,FL,32714
"Motiram Singh, DMD",16.3,+14079770048,General Dentistry,1781 E Broadway St,,,Oviedo,FL,32765
"Sophia Parpia, DDS, PLLC",12.05,+14078628301,Cosmetic Dentists,777 Douglas Ave,,Family & Cosmetic Dentistry,Altamonte Springs,FL,32714
Tuskawilla Dental Center,11.99,+14076990958,General Dentistry,1450 Tuskawillla Rd,Ste 116,,Winter Springs,FL,32708
"Lee, Raymond DMD PA",14.77,+14073660800,"General Dentistry,Cosmetic Dentists",385 Alexandria Blvd,,,Oviedo,FL,32765
Brignol Dental Spa & Orthodontics,9.31,+13523485223,"Orthodontists,Cosmetic Dentists,General Dentistry",2700 Westhall Ln,,,Maitland,FL,32751
Pediatric Dental Group,8.99,+14077377767,Pediatric Dentists,5518 Lake Howell Rd,,,Winter Park,FL,32792
"Schwartz W Theodore II, DDS",6.71,+14076444387,"Oral Surgeons,General Dentistry",206 S Park Ave,,,Winter Park,FL,32789
Coast Dental,7.59,+14076739111,"General Dentistry,Endodontists,Cosmetic Dentists",2063 Aloma Ave,Ste 203,,Winter Park,FL,32792
Hallmark Dental,10.75,+14073442400,"General Dentistry,Endodontists,Periodontists",1014 Buenaventura Blvd,,,Kissimmee,FL,34743
Sweetwater Dental Wellness,13.86,+14078623181,"General Dentistry,Cosmetic Dentists",901 Wekiva Springs Rd,,,Longwood,FL,32779
Mattingly Timothy E MD,8.18,+14076781600,"Doctors,General Dentistry",6504 University Blvd,,,Winter Park,FL,32792
Orlando Lifestyle Dentistry,7.23,+14075476453,Cosmetic Dentists,1850 Greenwich Ave,,,Winter Park,FL,32788
Premiere Orthodontics,7.5,+14073813376,Orthodontists,7009 Dr Phillips Blvd,Ste 200,,Orlando,FL,32819
Everest Dental,13.43,+14076957774,"Pediatric Dentists,General Dentistry,Cosmetic Dentists",2989 Alafaya Trl,,,Oviedo,FL,32765
"Mary R Isaacs, DMD",12.11,+14076965210,"General Dentistry,Cosmetic Dentists",5965 Red Bug Lake Rd,Unit 233,,Winter Springs,FL,32708
Classic Smiles,10.24,+14072933002,"General Dentistry,Cosmetic Dentists,Orthodontists",2677 Maguire Rd,,,Ocoee,FL,34761
Holehouse Center For Complete Dentistry,12.8,+14076541296,"Periodontists,Cosmetic Dentists,General Dentistry",3700 Winter Garden Vineland Rd,,,Winter Garden,FL,34787
Community Health Centers,4.77,+14079058827,"Obstetricians & Gynecologists,Pediatric Dentists",840 Mercy Dr,,,Orlando,FL,32808
Lakeshore Dental Care,17.48,+14079576760,"General Dentistry,Cosmetic Dentists",4695 Old Canoe Creek Rd,,,St. Cloud,FL,34769
Front Street Family Dentistry,15.95,+14075661146,General Dentistry,609 Front St,,,Celebration,FL,34747
New Smile Dentistry,14.12,+14073270731,"General Dentistry,Cosmetic Dentists",620 W State Rd 434,,,Winter Springs,FL,32708
"Smile Artists: Drs. Williams, Solberg & Miller",10.97,+14078340330,"General Dentistry,Cosmetic Dentists",201 Maitland Ave,,,Altamonte Springs,FL,32701
"E. Donald Thomas, DMD",7.26,+14076441455,"General Dentistry,Orthodontists,Cosmetic Dentists",201 N Lakemont Ave,Ste 300,,Winter Park,FL,32792
Artistic Smiles Of Orlando,8.09,+14076787744,"General Dentistry,Cosmetic Dentists",3011 Aloma Ave,,,Winter Park,FL,32792
"Ilya V Freyman, DMD",14.25,+14072600224,"General Dentistry,Cosmetic Dentists,Periodontists",286 E State Rd 434,,,Longwood,FL,32750
A Beautiful Smile,11.36,+14073486441,General Dentistry,3061 Michigan Ave,Ste 201,,Kissimmee,FL,34744
"Andrew J Tringas, DMD MS",9.63,+14078762991,"Orthodontists,Oral Surgeons",422 Main St,,,Windermere,FL,34786
BVL Family Dental,12.82,+14073486042,"General Dentistry,Cosmetic Dentists",100 Buenaventura Blvd,,,Kissimmee,FL,34743
Baldwin Park Peds Dentists,4.92,+14078985437,Pediatric Dentists,907 Outer Rd,,,Orlando,FL,32814
Endodontic Associates of Orlando,7.18,+14076472131,Endodontists,2001 Lee Rd,Ste A,,Winter Park,FL,32789
Sigma Dental,10.97,+14079313962,General Dentistry,2102 E Osceola Pkwy,,,Kissimmee,FL,34743
Chace Horvat & Cohen,6.69,+14076444404,Dentists,801 W Morse Blvd,,,Winter Park,FL,32789
Dr. Farzana Uddin,4.37,+14072280132,Endodontists,3907 E Colonial Dr,,,Orlando,FL,32803
Ata Omar DDS PA,16.96,+14078705151,General Dentistry,3192 S John Young Pkwy,Ste B,,Kissimmee,FL,34746
"Lawton Brett T, DMD MS",7.26,+14076448242,Orthodontists,201 N Lakemont Ave,Ste 400,,Winter Park,FL,32792
"Juan Santos, DDS",8.83,+14076442614,General Dentistry,331 N Maitland Ave,Ste D4,,Maitland,FL,32751
Precision Periodontics & Dental Implants,10.17,+14073780877,"Periodontists,Endodontists,Cosmetic Dentists",2666 Maguire Rd,,,Ocoee,FL,34761
Garcia Family Orthodontics,10.19,+14078570800,Orthodontists,14500 Gatorland Dr,,,Orlando,FL,32837
Family Dental Care,17.77,+14073244420,"Orthodontists,Cosmetic Dentists,General Dentistry",136 Parliament Lp,Ste 1000,,Lake Mary,FL,32746
Winter Garden Village Dental,12.8,+14076541221,"General Dentistry,Cosmetic Dentists",3311 Daniels Rd,,,Winter Garden,FL,34787
Orlando Friendly Dentistry,7.55,+14078261234,"Orthodontists,Pediatric Dentists,Cosmetic Dentists",7602 W Sand Lake Rd,,,Orlando,FL,32819
Orlando Oral and Facial Surgery,6.65,+14076285400,"Oral Surgeons,Cosmetic Dentists",800 W Morse Blvd,Ste 2,,Winter Park,FL,32789
Ocoee Dental Care PA,10.71,+14076561121,General Dentistry,11140 W Colonial Dr,Ste 7,,Ocoee,FL,34761
Beltran Periodontics,10.19,+14077534976,"Periodontists,Oral Surgeons,Cosmetic Dentists",4137 W Town Center Blvd,,,Orlando,FL,32837
Greenberg Dental Associates,7.2,+14072949200,Orthodontists,7319 W Colonial Dr,,,Orlando,FL,32818
Lang & Millward Aesthetic & Restorative Dentistry,13.84,+14073656691,"General Dentistry,Cosmetic Dentists",890 Northern Way,Ste G,,Winter Springs,FL,32708
"C R Edwards Jr, DDS",20.64,+14073226052,"Cosmetic Dentists,General Dentistry,Endodontists",2509 Park Dr,,,Sanford,FL,32773
All Aspects Dental,15.61,+14076549208,General Dentistry,301 S Tubb St,Ste D-2,,Oakland,FL,34760
Baptiste Orthodontics,7.16,+14072941560,Orthodontists,7260 W Colonial Dr,,,Orlando,FL,32818
The Smile Doctors,9.98,+14079305624,Orthodontists,4137 Town Center Blvd,,,Orlando,FL,32837
"Dirk G Prusia, DDS",10.94,+14078628158,"General Dentistry,Cosmetic Dentists",151 Wymore Rd,Ste 6000,,Altamonte Springs,FL,32714
Pediatric Dental Care of Greater Orlando,9.88,+14072080288,Pediatric Dentists,11309 Lake Underhill Rd,,,Orlando,FL,32825
Dowling & Dowling,5.47,+14075329856,"Periodontists,Endodontists,Cosmetic Dentists",6150 Metrowest Blvd,Ste 301,,Orlando,FL,32835
Oviedo Smiles Dentistry,14.73,+14076040399,"Oral Surgeons,General Dentistry,Cosmetic Dentists",65 W Mitchell Hammock Rd,Ste 1511,,Oviedo,FL,32765
"D'Aiuto C William, DDS,  PA",14.89,+14075890291,"General Dentistry,Cosmetic Dentists,Pediatric Dentists",,,,Longwood,FL,32779
Aloha Family Dental,14.76,+14076566555,General Dentistry,15505 Stoneybrook W Pkwy,,,Winter Garden,FL,34787
Mangiarelli Lisa Dr,5.86,+14077814185,Orthodontists,1507 S Hiawassee Rd,,,Orlando,FL,32835
Ramzi Matar C,8.83,+14076776453,General Dentistry,331 N Maitland Ave,Ste A3,,Maitland,FL,32751
"William H Miller, DMD",13.89,+14079350100,General Dentistry,829 E Oak St,,,Kissimmee,FL,34744
Horizons Dental,12.63,+14073441550,General Dentistry,1031 Plaza Dr,,,Kissimmee,FL,34743
Greenberg Dental Associates,9.24,+14076608080,Orthodontists,2301 Maitland Center Pkwy,Ste 128,,Maitland,FL,32751
"David Hazen, DMD - Orlando Oral Impant Center",11.47,+14076775400,"Cosmetic Dentists,General Dentistry,Sleep Specialists",385 Douglas Ave,,,Altamonte Springs,FL,32714
Central Florida Endodontics,13.8,+14078460578,Dentists,2240 W Columbia Ave,,,Kissimmee,FL,34741
Greenberg Dental Associates,14.31,+14079771600,"General Dentistry,Endodontists,Cosmetic Dentists",1500 Alafaya Trl,,,Oviedo,FL,32765
"Susan Glenn Caddell, DDS",29.71,+13523432821,"Oral Surgeons,General Dentistry",109 W Main St,,,Tavares,FL,32778
Altamonte Springs Family Dentistry,11.26,+14073393373,General Dentistry,515 E Altamonte Dr,,,Altamonte Springs,FL,32701
Florida Hospital East Orlando,6.41,+14073038110,Hospitals,7727 Lake Underhill Rd,,,Orlando,FL,32822
"Michael L Weinstock, DDS",11.95,+14078346446,"General Dentistry,Cosmetic Dentists,Endodontists",664 Palm Springs Dr,,,Altamonte Springs,FL,32701
Ryder Art W DMD PA,12.19,+14077406500,General Dentistry,813 Douglas Ave,Ste 5,,Altamonte Springs,FL,32714
Bella Dente Fine Dentistry,13.11,+14079055698,"Endodontists,Cosmetic Dentists,General Dentistry",13650 W Colonial Dr,,,Winter Garden,FL,34787
BayTree Family Dental,17.5,+14073239669,"General Dentistry,Cosmetic Dentists",350 Waymont Ct,,,Lake Mary,FL,32746
Sage Dental of Apopka,12.91,+14074106848,"Oral Surgeons,Endodontists,Cosmetic Dentists",2444 E Semoran Blvd,,,Apopka,FL,32703
"Katrina Schroeder, DMD",14.71,+14078861611,"General Dentistry,Orthodontists,Cosmetic Dentists",200 N Park Ave,Ste A,,Apopka,FL,32703
Central Florida Orthodontic Specialists,8.51,+14076720030,Orthodontists,7534 University Blvd,,,Winter Park,FL,32792
"Jason J Sotto, DMD",12.78,+14073475956,Pediatric Dentists,3650 Winter Garden Vineland Rd,,Little Gators Pediatric Dentistry,Winter Garden,FL,34787
Trevisani Oral Surgery & Dental Implants,14.99,+14078862050,"Oral Surgeons,Cosmetic Dentists",511 Wekiva Commons Cir,,,Apopka,FL,32712
Dunwoody Dental,21.48,+14073289492,Dentists,5030 W State Road 46,Ste 1018,,Sanford,FL,32771
Central Florida Oral and Maxillofacial Surgery,11.26,+14072756626,Oral Surgeons,1864 N Alafaya Trl,Ste 100,,Orlando,FL,32826
Advanced Endodontics,19.06,+14075744271,Endodontists,743 Stirling Center Pl,Unit 1701,,Lake Mary,FL,32746
Aspen Dental,11.05,+14075203595,"Oral Surgeons,General Dentistry,Cosmetic Dentists",3304 Greenwald Way N,,,Kissimmee,FL,34741
Orlando Endodontic Specialists - South,10.92,+14075819500,Endodontists,1956 E Osceola Pkwy,,,Kissimmee,FL,34743
"Tim Tiralosi, DMD",19.06,+14073331335,"General Dentistry,Cosmetic Dentists",731 Stirling Center Pl,Ste 1951,,Lake Mary,FL,32746
Smiles by Design,12.34,+14076822100,General Dentistry,3290 E Semoran Blvd,,,Apopka,FL,32703
"Jared T Krieger, DMD - Krieger Periodontics",10.33,+14074785002,Periodontists,707 Pennsylvania Ave,Ste 1200,,Altamonte Springs,FL,32701
"Arbor Dentistry - Philip Trinh, Dmd",15.84,+14078143969,General Dentistry,1112 Rock Springs Rd,,,Apopka,FL,32712
Ferguson & Walters DMD PA,8.34,+14076571234,Dentists,3726 N Goldenrod Rd,Ste 3,,Winter Park,FL,32792
"Primera Dental - Amal Hamdi, DDS",18.22,+14075125700,"General Dentistry,Orthodontists,Cosmetic Dentists",1045 Primera Blvd,,,Lake Mary,FL,32746
Dental World,13.47,+14078304401,"Orthodontists,Cosmetic Dentists",1250 W State Rd 434,Ste 1008,,Longwood,FL,32750
Dental Care of Davenport,21.09,+13214014540,"General Dentistry,Endodontists,Cosmetic Dentists",7551 Osceola Polk Line Rd,,,Davenport,FL,33896
Champion Dental Group,22.43,+14077873892,General Dentistry,8390 Champions Gate Blvd,Ste 314,,Champions Gate,FL,33896
Warren L Spencer D D S P A,12.54,+14076825757,General Dentistry,994 Douglas Ave,Ste 104,,Altamonte Springs,FL,32714
Sage Dental of Oviedo,10.55,+13213046777,"Endodontists,Periodontists",3607 Aloma Ave,Ste 1031,,Oviedo,FL,32765
Hi-5 Children's Dentistry,11.0,+14078100450,"Pediatric Dentists,Cosmetic Dentists",1202 Cypress Glen Cir,,,Kissimmee,FL,34741
Rinehart Dental,21.04,+14073304074,Cosmetic Dentists,259 Bellagio Cir,,,Sanford,FL,32771
Columbia Dental Care & Associates,13.59,+14079334343,"Teeth Whitening,Cosmetic Dentists,General Dentistry",1135 W Columbia Ave,,,Kissimmee,FL,34741
Dental Care at Westside Shoppes,11.79,+14072177685,General Dentistry,11625 Lachlan Ln,,,Windermere,FL,34786
Greenberg Dental & Orthodontics,10.73,+18004416440,"General Dentistry,Orthodontists,Cosmetic Dentists",1050 Buenaventura Blvd,,,Kissimmee,FL,34744
"V Ramcharan, PA",7.12,+14075991221,"Oral Surgeons,Doctors",2081 Dundee Dr,,,Winter Park,FL,32792
Gittess Orthodontics,12.19,+14076991200,"Orthodontists,Pediatric Dentists,Cosmetic Dentists",5733 Canton Cv,,,Winter Springs,FL,32708
Greenberg Dental Associates,12.15,+14078620444,"Orthodontists,General Dentistry,Cosmetic Dentists",926 Great Pond Dr,Ste 2002,,Altamonte Springs,FL,32714
Family Dental at Alafaya Crossings,14.04,+14075421542,"General Dentistry,Cosmetic Dentists",1984 Alafaya Trl,Ste 1006,,Oviedo,FL,32765
Artisan Dental,12.2,+14076965210,Dentists,5965 Red Bug Lake Rd,Ste 233,,Winter Springs,FL,32708
Clearchoice Dental Implant Center,9.51,+13213042868,"Oral Surgeons,Cosmetic Dentists,Prosthodontists",1101 N Lake Destiny Rd,Ste 130,,Maitland,FL,32751
Sanford Plaza Dental Center,19.61,+14073229992,General Dentistry,2921 S Orlando Dr,,,Sanford,FL,32773
"Patrick Delflore, DDS",12.19,+14077888388,"Oral Surgeons,Cosmetic Dentists,Orthodontists",931 Centre Cir,,,Altamonte Springs,FL,32714
West Orange Dental Group,9.83,+14076542999,General Dentistry,1231 Blackwood Ave,,,Ocoee,FL,34761
Sage Dental of Altamonte Springs,11.18,+14076913908,"Orthodontists,Cosmetic Dentists,Endodontists",305 E Altamonte Dr,Ste 1020,,Altamonte Springs,FL,32701
Wintersprings Dental Excellence,11.8,+14076961325,General Dentistry,1008 Willa Springs Dr,,,Winter Springs,FL,32708
Coast Dental,12.45,+14078312255,"General Dentistry,Orthodontists,Cosmetic Dentists",3385 S US Hwy 17/92,Ste 221,,Casselberry,FL,32707
Aloma Dental Center,13.58,+14079711116,"General Dentistry,Cosmetic Dentists",1460 E Red Bug Rd,,,Oviedo,FL,32765
Nitisusanta Jonathan M DDS,10.27,+14078779003,"Oral Surgeons,General Dentistry",2704 Rew Cir,Ste 103,,Ocoee,FL,34761
Yao Effie C DDS PA,17.66,+14073330881,General Dentistry,4106 W Lake Mary Blvd,Ste 230,,Lake Mary,FL,32746
Greenberg Dental Associates,13.62,+14079338686,"Orthodontists,Endodontists,Cosmetic Dentists",1379 East Vine St,,,kissimmee,FL,34744
Lake Mary Modern Dentistry,17.5,+14075471359,"Oral Surgeons,General Dentistry,Cosmetic Dentists",3779 Lake Emma Rd,,,Lake Mary,FL,32746
Apopka Dentist: Cristene Maas DDS,12.51,+14077922409,General Dentistry,3030 E Semoran Blvd,Ste 200,,Apopka,FL,32703
Hamlin Groves Dental Care,15.36,+14075542335,"General Dentistry,Endodontists,Cosmetic Dentists",16412 New Independence Pkwy,Ste 100,,Winter Garden,FL,34787
Orlando Oral and Facial Surgery,9.7,+14075220464,Oral Surgeons,10131 W Colonial Dr,,,Ocoee,FL,34761
Coast Dental & Orthodontics - Kissimmee,15.46,+14079351772,"General Dentistry,Endodontists,Cosmetic Dentists",2310 E Irlo Bronson Memorial Hwy,Ste C-106,,Kissimmee,FL,34744
Pediatric Dentistry of Central Florida,19.37,+14075938900,"Orthodontists,Pediatric Dentists",3109 Innovation Dr,,,Saint Cloud,FL,34772
Lakeside Family Dentistry,11.63,+14077746622,"General Dentistry,Endodontists,Cosmetic Dentists",1022 W State Road 436,Ste 1008,,Altamonte Springs,FL,32714
Rg Dental,10.99,+14076783330,General Dentistry,3228 W State Road 426,,,Oviedo,FL,32765
"Richard Petrilli, DMD, PA",16.26,+14078841846,"General Dentistry,Cosmetic Dentists",1585 Rock Springs Rd,,,Apopka,FL,32712
"Bertot A Carlos, DMD",9.77,+14076282286,Pediatric Dentists,1650 N Maitland Ave,,,Maitland,FL,32751
Orlando Oral and Facial Surgery,12.22,+14076958200,Oral Surgeons,5745 Canton Cv,Ste 101,,Winter Springs,FL,32708
"Jonathan W. Preble, DMD FICOI",11.59,+14078313959,"General Dentistry,Cosmetic Dentists,Orthodontists",499 E Central Pkwy,Ste 220,,Altamonte Springs,FL,32701
Bright Now! Dental,11.42,+14077021011,"Cosmetic Dentists,General Dentistry,Orthodontists",745 W Osceola Pkwy,,,Kissimmee,FL,34741
Towncare Dental of Clermont,21.41,+13524321960,"General Dentistry,Cosmetic Dentists,Periodontists",1645 E Hwy 50,Ste 100,,Clermont,FL,34711
Coast Dental,11.08,+14078622211,"General Dentistry,Orthodontists",520 Florida 436,Ste 1118,,Altamonte Springs,FL,32714
Bhatheja Ramesh C BDS,10.71,+14076561121,General Dentistry,11140 W Colonial Dr,Ste 7,,Ocoee,FL,34761
Velazquez Anaura Tirado DDS,11.29,+14073439800,Oral Surgeons,3066 Michigan Ave,,,Kissimmee,FL,34744
"Zullo Richard J, DDS PA",13.53,+14073326060,General Dentistry,1385 W State Road 434,Ste 203,,Longwood,FL,32750
Smith & Weeks Orthodontic Specialists,12.05,+14076991102,Orthodontists,1350 Tuskawilla Rd,,,Winter Springs,FL,32708
Derrick Dental Care,12.99,+14077888400,General Dentistry,2633 W State Road 434,,,Longwood,FL,32779
"Gregory J. Jann, DDS",15.26,+14073653513,"General Dentistry,Periodontists,Cosmetic Dentists",258 Plaza Dr,,,Oviedo,FL,32765
Smile Design Studio,17.38,+14078040770,"General Dentistry,Teeth Whitening",1331 S International Pkwy,Ste 2271,,Lake Mary,FL,32746
"T J Dorsey, DDS",9.75,+14072956993,Cosmetic Dentists,10169 W Colonial Dr,,Colonial Drive Family Dentistry,Ocoee,FL,34761
Cosmetic and Restorative Dentistry of Lake Mary Pl,19.06,+14078058808,Dentists,737 Stirling Center Pl,Ste 1801,,Lake Mary,FL,32746
Dentures & Dental Implants by Dr. Kasem,11.52,+14076564702,"General Dentistry,Orthodontists,Cosmetic Dentists",242 Taylor St,,,Ocoee,FL,34761
Towncare Dental of Altamonte Springs,12.39,+14072781210,"Cosmetic Dentists,General Dentistry",820 State Rd 434 N,Ste B,,Altamonte Springs,FL,32714
"David Donald, DDS PA",13.14,+13212957893,Pediatric Dentists,365 Wekiva Springs Rd,Ste 121,,Longwood,FL,32779
Glow Dental Studio,17.7,+14078049901,"Cosmetic Dentists,General Dentistry",758 N Sun Dr,Ste 100,,Lake Mary,FL,32746
Aspen Dental,17.7,+13218053071,"General Dentistry,Oral Surgeons,Cosmetic Dentists",4301 13th St,,,Saint Cloud,FL,34769
"Hernandez Frank, DMD",9.7,+14072947558,Endodontists,10125 W Colonial Dr,Ste 208,,Ocoee,FL,34761
Williston Family Dental,18.79,+14078338660,"General Dentistry,Periodontists,Cosmetic Dentists",910 Williston Park,Ste 2000,,Lake Mary,FL,32746
Elite Dental,11.57,+14077865559,"General Dentistry,Endodontists,Cosmetic Dentists",851 W State Rd 436,Ste 1021,,Altamonte Springs,FL,32714
Dental Associates of Lake Mary,17.44,+14078292123,General Dentistry,1301 S International Pkwy,,,Lake Mary,FL,32746
Davenport Dentist Group,28.32,+18634963111,"General Dentistry,Cosmetic Dentists",2213 North Blvd W,,,Davenport,FL,33837
"Troy L. King, D.D.S",14.67,+14079779990,Pediatric Dentists,1390 City View Ctr,,,Oviedo,FL,32765
Affinity Dental Group,13.94,+14079325001,"Cosmetic Dentists,General Dentistry,Endodontists",607 Oak Commons Blvd,,,Kissimmee,FL,34741
Greenberg Dental & Orthodontics,12.81,+14079059622,General Dentistry,13361 W Colonial Dr,,,Winter Garden,FL,34787
"Stephen B Seidler, DDS",21.45,+14073201700,"Cosmetic Dentists,Oral Surgeons",4942 W Sr 46,Ste 1038,,Sanford,FL,32771
Palm Springs Dental Associates,11.59,+14078313959,"Orthodontists,Cosmetic Dentists,Endodontists",499 E Central Pkwy,Ste 200,,Altamonte Springs,FL,32701
Greenberg Dental,10.59,+14077677600,Orthodontists,879 State Road 436,,,Casselberry,FL,32707
Coast Dental,13.12,+14073961288,"Orthodontists,Endodontists,Cosmetic Dentists",2907 Vineland Rd,,,Kissimmee,FL,34746
"Altamonte Mall Dental, P.A",11.39,+14072610201,General Dentistry,451 E Altamonte Dr,Ste 1279,Altamonte Mall,Altamonte Springs,FL,32701
James Ho,17.5,+14073221688,Dentists,430 Waymount Ct,,,Lake Mary,FL,32746
Bright Now! Dental,20.72,+14075472230,"General Dentistry,Cosmetic Dentists,Orthodontists",1601 Wp Ball Blvd,,,Sanford,FL,32771
Greenberg Dental & Orthodontics,13.42,+14073474865,"Orthodontists,Cosmetic Dentists,General Dentistry",5043 W Irlo Bronson Hwy,,,Kissimmee,FL,34746
Central Florida Dental Group,21.3,+14076544024,"General Dentistry,Cosmetic Dentists,Endodontists",1804 Oakley Seaver Dr,Ste G,,Clermont,FL,34711
Apopka Endodontics,12.92,+14079304496,Endodontists,2438 E Semoran Blvd,,,Apopka,FL,32703
Wayside Family Dental,21.17,+14077324570,"Cosmetic Dentists,General Dentistry,Oral Surgeons",4907 International Pkwy,,,Sanford,FL,32771
Advanced Endodontics,21.47,+13524045550,Endodontists,1471 Johns Lake Rd,Ste 1,,Clermont,FL,34711
New Smile Dentistry  - Altamonte Springs,11.13,+14077678000,"Cosmetic Dentists,Oral Surgeons,General Dentistry",512 E Altamonte Dr,,,Altamonte Springs,FL,32701
Porter Orthodontics,12.71,+14078344500,Orthodontists,1097 Douglas Ave,,,Altamonte Springs,FL,32714
Oviedo Dental Center,13.53,+14073662363,General Dentistry,2959 Alafaya Trl,Ste 109,,Oviedo,FL,32765
Haines City Dental,28.54,+18634228338,"General Dentistry,Cosmetic Dentists",35914 Hwy 27 S,Ste 2B,,Haines City,FL,33844
Rawle Orthodontics,12.5,+14076821818,Orthodontists,903 N State Rd 434,,,Altamonte Springs,FL,32714
Prestige Dental,14.18,+14079350027,General Dentistry,312 W Bass St,,,Kissimmee,FL,34741
"John Nguyen, DMD PA - Winter Springs Dentistry",15.18,+14073272015,"General Dentistry,Orthodontists",1196 E State Rd 434,,,Winter Springs,FL,32708
Caissie Travis Dr,18.69,+14073333448,General Dentistry,440 St Charles Ct,,,Lake Mary,FL,32746
Professional Smiles,25.25,+18638521198,"Cosmetic Dentists,General Dentistry,Endodontists",2300 Deer Creek Commerce Ln,Ste 500,,Davenport,FL,33837
Cade Orthodontics,12.8,+14076560990,Orthodontists,3311 Daniels Rd,,,Winter Garden,FL,34787
A Soft Touch In Family Dental Care,15.99,+14078894868,General Dentistry,450 Errol Pkwy,,,Apopka,FL,32712
Orlando Oral and Facial Surgery,7.17,+14076294444,Oral Surgeons,2045 Lee Rd,,,Winter Park,FL,32789
Verardi Dr Mary DDS,19.53,+14076889901,General Dentistry,917 Rinehart Rd,,,Lake Mary,FL,32746
Shannon Orthodontics,27.46,+18633536867,Orthodontists,39863 US Hwy 27,,,Davenport,FL,33837
Narvaez Jenny DDS,13.24,+14073909113,General Dentistry,2916 Vineland Rd,,,Kissimmee,FL,34746
Coast Dental,16.16,+14072780934,"General Dentistry,Pediatric Dentists,Cosmetic Dentists",1013 Lockwood Blvd,Unit 7,,Oviedo,FL,32765
Sanford Dental,18.79,+14073213820,General Dentistry,3607 S Orlando Dr,,,Sanford,FL,32773
Oral & Facial Surgeons of Mid Florida,6.34,+14076440224,Oral Surgeons,1573 W Fairbanks Ave,Ste 300,,Winter Park,FL,32789
Coast Dental,13.5,+14078892555,"General Dentistry,Oral Surgeons,Cosmetic Dentists",767 S Orange Blossom Trl,,,Apopka,FL,32703
Fischer Robert DDS,14.0,+14079313733,Oral Surgeons,595 Oak Commons Blvd,,,Kissimmee,FL,34741
Costas Jose DMD Ms,10.93,+14076826474,Endodontists,225 S Westmonte Dr,,,Altamonte Springs,FL,32714
"M A Kasem, BDS",11.52,+13522437700,General Dentistry,242 Taylor St,,,Ocoee,FL,34761
Orlando Endodontic Specialists-North,12.94,+14077888880,Endodontists,2855 W State R 434,Ste 1021,,Longwood,FL,32779
Kasem M A Dr,11.52,+14076564702,General Dentistry,242 Taylor St,,,Ocoee,FL,34761
Citrus Grove Dental,20.26,,"General Dentistry,Dental Hygienists",266 N Hancock Rd,,,Clermont,FL,34711
Sanford Dental Excellence,21.49,+14073201700,"General Dentistry,Cosmetic Dentists,Endodontists",4942 W SR 46,Ste 1038,,Sanford,FL,32771
Lake Mary Pediatric Dentistry,19.23,+14079420225,Pediatric Dentists,974 International Pkwy,,,Lake Mary,FL,32746
"Harvey Kansol,DDS",17.78,+14073232300,General Dentistry,3098 W Lake Mary Blvd,,,Lake Mary,FL,32746
Tooth Acres,27.35,+13523834414,General Dentistry,110 Waterman Ave,,,Mt Dora,FL,32757
Coast Dental & Orthodontics - Lake Mary,17.87,+14073286411,"General Dentistry,Orthodontists,Cosmetic Dentists",2500 W Lake Mary Blvd,Ste 106,,Lake Mary,FL,32746
Clermont Endodontic Specialist,22.05,+13523940150,Endodontists,265 Hatteras Ave,Ste 2,,Clermont,FL,34711
Robbins Charles M DDS,14.0,+14078477744,Pediatric Dentists,405 W Oak St,,,Kissimmee,FL,34741
"Lopez Michael, DDS, PA",13.64,+14072601221,"General Dentistry,Cosmetic Dentists",225 W State Rd 434,Ste 101,,Longwood,FL,32750
Lake Mary Dental PA,17.07,+14073303801,General Dentistry,114 Timberlachen Cir,,,Lake Mary,FL,32746
Hall Steven M DMD PA,15.3,+14073651242,General Dentistry,252 Plaza Dr,,,Oviedo,FL,32765
"Ali Behzadi, DMD",10.84,+14078314077,Pediatric Dentists,515 State Rd 436,Ste 1010,,Casselberry,FL,32707
Winning Smiles Orthodontics,14.59,+14075420938,Orthodontists,83 Alafaya Woods Blvd,,,Oviedo,FL,32765
Magee Dental,12.07,+13212034539,"Periodontists,Cosmetic Dentists",5892 Red Bug Lake Rd,,,Winter Springs,FL,32708
Florida Oral Surgery,21.05,+14073303250,"Oral Surgeons,IV Hydration,Anesthesiologists",205 Bellagio Cir,,,Sanford,FL,32771
Dental SPA,21.25,+14073303601,"Cosmetic Dentists,General Dentistry",205 Towne Center Blvd,,,Sanford,FL,32771
Lach Orthodontic Specialists,12.91,+14073591960,"Orthodontists,Pediatric Dentists,General Dentistry",4250 Alafaya Trl,Ste 180,,Oviedo,FL,32765
"Suraiya A Kasu, DDS",14.06,+14078462494,"General Dentistry,Oral Surgeons,Orthodontists",801 W Oak St,Ste 102,,Kissimmee,FL,34741
Pyle Kenneth DDS,17.07,+14073303801,Oral Surgeons,114 Timberlachen Cir,,,Lake Mary,FL,32746
Foster Robert H DDS,14.37,+14076563880,Oral Surgeons,210 Temple Grove Dr,,,Winter Garden,FL,34787
Oral Surgery Center of West Orlando,11.75,+14076569455,"Oral Surgeons,Cosmetic Dentists",12200 W Colonial Dr,,,Winter Garden,FL,34787
Ogden Orthodontics,10.02,+14079093003,Orthodontists,1805 Maguire Rd,Ste 101,,Windermere,FL,34786
"Charles R McNamara, DMD",12.98,+14077743399,Oral Surgeons,195 Briarcliff Dr,Ste 115,,Longwood,FL,32779
Clermont Pediatric Dentistry,21.37,+13522416333,Pediatric Dentists,3165 Citrus Tower Blvd,,,Clermont,FL,34711
Lawton Orthodontics,13.42,+14077060003,Orthodontists,2984 Alafaya Trl,,,Oviedo,FL,32765
Winter Springs Endodontics,12.22,+14076960053,Endodontists,5738 Canton Cv,Ste 100,,Winter Springs,FL,32708
"Ricardo L Duran, DDS",27.51,+13527355000,General Dentistry,18766 US Highway 441,,,Mount Dora,FL,32757
Smiles Abroad,19.34,+14073144455,"Oral Surgeons,General Dentistry",809 Rinehart Rd,,,Lake Mary,FL,32746
Precision Smiles Dental,19.11,+14079155421,"Cosmetic Dentists,General Dentistry",752 Stirling Center Pl,,Ste 1000,Lake Mary,FL,32746
Aspen Dental,21.9,+13524045754,"General Dentistry,Oral Surgeons,Cosmetic Dentists",2501 S Hwy 27,,,Clermont,FL,34711
Greenberg Dental Associates,13.03,+14078894360,Orthodontists,2216 E Semoran Blvd,,,Apopka,FL,32703
Brown Randall C DMD,20.58,+14073235650,General Dentistry,902 W 25th St,,,Sanford,FL,32771
"Steven Hochfelder, DMD",17.59,+14073218900,"Cosmetic Dentists,Endodontists,Periodontists",200 Waymont Ct,Ste 130,,Lake Mary,FL,32746
Tringas Orthodontics,17.54,+14078762991,Orthodontists,1530 Celebration Blvd,"Ste 411, Fl 4",,Celebration,FL,34747
Oakport Dental,20.75,+14073235340,"General Dentistry,Endodontists,Cosmetic Dentists",2421 S Maple Ave,,,Sanford,FL,32771
Kendrick Orthodontics,14.04,+14078709848,Orthodontists,3280 Greenwald Way N,,,Kissimmee,FL,34741
MyFamily Orthodontics,11.86,+14072583262,Orthodontists,7848 Winter Garden Vineland Rd,Ste 100,,Windermere,FL,34786
"Ardin B. Manalo, D.M.D.",14.2,+14079350027,"General Dentistry,Orthodontists,Cosmetic Dentists",312 W Bass St,,,Kissimmee,FL,34741
Greenberg Dental and Orthodontics,24.86,+14079338222,General Dentistry,1096 Cypress Pkwy,,,Poinciana,FL,34759
Acecare Dental & Orthodontics,14.71,+14075427888,"General Dentistry,Oral Surgeons,Cosmetic Dentists",120 Alexandria Blvd,Ste 20,,Oviedo,FL,32765
Daniel Kathryn M DMD,17.66,+14073332113,General Dentistry,120 International Pkwy,,,Lake Mary,FL,32746
"Michael M Morgan, DMD",30.34,+13527423500,"Endodontists,Cosmetic Dentists,General Dentistry",2140 Lake Eustis Dr,,,Tavares,FL,32778
Affordable Dentures,9.86,+14078773828,Dentists,1163 Blackwood Ave,,,Ocoee,FL,34761
"J Thaddeus Morgan, DMD",17.63,+14073247879,General Dentistry,145 Waymont Ct,,,Lake Mary,FL,32746
Community Health Centers,13.97,+14079058827,"General Dentistry,Pediatric Dentists",210 E 7th St,,,Apopka,FL,32703
Community Health Centers,12.77,+14079058827,"Family Practice,Pediatricians,General Dentistry",13275 W Colonial Dr,,,Winter Garden,FL,34787
Dental Elements,13.96,+14078478000,General Dentistry,701 East Oak St,,Suit B,Kissimmee,FL,34744
Dental Touch At Metrowest,5.27,+14072918108,,2869 Wilshire Dr,Ste 102,,Orlando,FL,32835
Physician Associates of Florida,9.21,+14073817364,"Family Practice,Pediatric Dentists,Podiatrists",800 N Maitland Ave,,,Maitland,FL,32751
St. Luke's Family Dentistry,13.94,+14073669090,"General Dentistry,Cosmetic Dentists",100 Burnsed Pl,Ste 1000,,Oviedo,FL,32765
Sanchez Alberto DMD,17.8,+14073243320,General Dentistry,2910 W Lake Mary Blvd,Ste 101,,Lake Mary,FL,32746
Orlando Regional Medical Center,1.67,+13218415111,Medical Centers,52 W Underwood St,,,Orlando,FL,32806
Cordoba Orthodontics,19.09,+14074449960,Orthodontists,734 Stirling Center Pl,,,Lake Mary,FL,32746
Modern Orthodontics,21.69,+13522421818,Orthodontists,1455 East Highway 50,,,Clermont,FL,34711
Lake Oral & Maxillofacial Surgery,18.74,+14076245113,Oral Surgeons,924 Williston Park Point,,,Lake Mary,FL,32746
Dental Assistant Pioneers Academy,7.27,+14079009338,Specialty Schools,5107 Andrus Ave,,,Orlando,FL,32804
"W Michael Ingalls, DDS",17.56,+14073242090,Pediatric Dentists,245 Waymont Ct,Ste 101,,Lake Mary,FL,32746
UCF Student Health Center,12.7,+14078232701,Medical Centers,Libra Dr,,,Orlando,FL,32816
J. Edward Kennedy Periodontic & Implant Dentistry,18.79,+14078338522,Periodontists,910 Williston Park Pt,,,Lake Mary,FL,32746
Lake Mary Endodontics,18.69,+14073333448,Dentists,440 St Charles Ct,Ste 1000,,Lake Mary,FL,32746
Lopez-Torres Minta DMD,21.48,+14073289492,Dentists,5030 W State Road 46,Ste 1018,,Sanford,FL,32771
"Thomas L Bowers IV, DMD, MD",27.4,+13522403302,"Oral Surgeons,Cosmetic Dentists",2023 W Old US Highway 441,,,Mount Dora,FL,32757
Central Florida Oral & Maxillofacial Surgery PA,13.22,+14079776725,Oral Surgeons,2075 Pine Bluff Pl,,,Oviedo,FL,32765
Aspen Dental,20.85,+14077923987,"General Dentistry,Oral Surgeons,Cosmetic Dentists",1528 Rinehart Rd,,,Sanford,FL,32771
Advanced Faces,21.45,+13522420627,"Oral Surgeons,Cosmetic Surgeons",855 Oakley Seaver Dr,,,Clermont,FL,34711
Fortune Dental,13.79,+14073482002,"Cosmetic Dentists,Endodontists,Periodontists",2324 Fortune Rd,,,Kissimmee,FL,34744
"Levine Hal J, DMD, MD",7.85,+14073526301,Doctors,7932 W Sand Lake Rd,Ste 109,,Orlando,FL,32819
Lall Ravi D DDS,17.07,+14073303801,Dentists,114 Timberlachen Cir,,,Lake Mary,FL,32746
Pediatric Dental Care Of Greater Orlando,12.86,+14079777077,"Pediatric Dentists,Pediatricians",7250 Red Bug Lake Rd,,,Oviedo,FL,32765
Central Florida Orthodontic Specialists,12.73,+14076820883,Orthodontists,990 N State Rd 434,,,Altamonte Springs,FL,32714
Lake Mary Dentistry,19.27,+14076883697,"Endodontists,Orthodontists,Cosmetic Dentists",938 International Pkwy,Ste 1500,,Lake Mary,FL,32746
Little Gators Pediatric Dentistry,12.78,+14073475956,Pediatric Dentists,3650 Winter Garden Vineland Rd,,,Winter Garden,FL,34787
Greenberg Dental & Orthodontics,17.94,+14078921643,"Orthodontists,Pediatric Dentists",4039 13th St,,,Saint Cloud,FL,34769
Savastano & Dunn Orthodontics,12.94,+14078621870,"Orthodontists,Dental Hygienists",2855 W State Rd 434,Ste 1011,,Longwood,FL,32779
"Johnson Lena, DDS",15.13,+14073657482,Cosmetic Dentists,50 Windsormere Way,Ste 1020,,Oviedo,FL,32765
Aspen Dental,28.22,+13527352111,"Cosmetic Dentists,General Dentistry,Oral Surgeons",17264 US Hwy 441,,,Mount Dora,FL,32757
Hertz Amy DMD,21.48,+14073289492,General Dentistry,5030 W State Road 46,Ste 1018,,Sanford,FL,32771
Modern Orthodontics,15.16,+14077032744,Orthodontists,515 N Park Ave,Ste 107,,Apopka,FL,32712
Florida Dental Implant & Aesthetic Center,19.1,+14079229872,"Oral Surgeons,Cosmetic Dentists,Prosthodontists",746 Sterling Center Pl,Ste 1100,,Lake Mary,FL,32746
Economy Dentures,17.48,+14073333508,General Dentistry,890 S Sun Dr,,,Lake Mary,FL,32746
Sage Dental  of Lake Mary,17.6,+14079363400,"Orthodontists,Oral Surgeons,Endodontists",3801 W Lake Mary Blvd,Ste 109,,Lake Mary,FL,32746
Royal Oaks Dental Care,20.63,+13525369644,General Dentistry,2105 Hartwood Marsh Rd,,,Clermont,FL,34711
Ason Maxillofacial Surgery PA,11.09,+14074834939,Oral Surgeons,3172 Bill Beck Blvd,,,Kissimmee,FL,34744
Rawle Orthodontics,18.71,+14076821818,Orthodontists,450 St Charles Ct,Ste 1008,,Lake Mary,FL,32746
Craig C Lewis D D S P A,14.74,+14078462150,Orthodontists,914 Emmett St,,,Kissimmee,FL,34741
Kissimmee Oral Surgery,11.09,+14074834939,Oral Surgeons,3172 Bill Beck Blvd,,,Kissimmee,FL,34744
Oral & Facial Surgery Center,14.07,+14079320883,"Oral Surgeons,Cosmetic Dentists,Cosmetic Surgeons",200 W Oak St,,,Kissimmee,FL,34741
Christie Dental,17.6,+14073021446,Dentists,3801 W Lake Mary Blvd,,,Lake Mary,FL,32746
Orlando Oral and Facial Surgery,18.23,+14073333011,Oral Surgeons,775 Primera Blvd,Ste 1001,,Lake Mary,FL,32746
Amazing Smile Llc,20.79,+14073215010,"General Dentistry,Cosmetic Dentists",2417 S French Ave,,,Sanford,FL,32771
"Lisa Peters-Seppala, DMD",20.24,+14073475772,General Dentistry,2620 E Hwy 50,Ste 100,Citrus Grove Dental Care,Clermont,FL,34711
Mount Dora Modern Dentistry,28.3,+13522703015,"Oral Surgeons,General Dentistry,Cosmetic Dentists",17365 US Hwy 441,,,Eustis,FL,32757
Kissimmee Childrens Dentistry,14.0,+14078700717,Pediatric Dentists,595 Oak Commons Blvd,Ste C,,Kissimmee,FL,34741
Softouch Dental,17.77,+14073231010,"Cosmetic Dentists,Oral Surgeons",3232 W Lake Mary Blvd,Ste 1400,,Lake Mary,FL,32746
Crofton Daniel J MD DDS,22.05,+13522425331,Oral Surgeons,265 Hatteras Ave,,,Clermont,FL,34711
"Anthony J Gulde, DDS PA",28.43,+13526024235,"Cosmetic Dentists,Endodontists",15820 Dora Ave,Ste A,,Tavares,FL,32778
Central Florida Oral & Maxillofacial Surgery PA,22.05,+13522425331,Oral Surgeons,265 Hatteras Ave,,,Clermont,FL,34711
Smile Concepts Orthodontics,15.2,+14079154920,Orthodontists,551 N Park Ave,Ste A,,Apopka,FL,32712
Wortham Orthodontics,21.27,+13523940100,Orthodontists,1755 E Hwy 50,Ste B,,Clermont,FL,34711
Savastano & Dunn Orthodontics  - Lake Mary,18.81,+14078050068,Orthodontists,550 Rinehart Rd,,,Lake Mary,FL,32746
Advanced Dental Care of Mount Dora,28.03,+13527293668,"Cosmetic Dentists,General Dentistry,Endodontists",3555 N Hwy 19A,,,Mount Dora,FL,32757
Greenberg Dental & Orthodontics,22.5,+14073238180,Oral Surgeons,E 1st St,,,Sanford,FL,32771
Beim Orthodontics,17.51,+14073230600,Orthodontists,345 Waymont Ct,,,Lake Mary,FL,32746
lake County Gentle Dentistry,30.89,+13523571212,General Dentistry,600 North Eustis St,,,Eustis,FL,32726
Jennifer S Holt DDS PA,30.44,+13523571900,Dentists,413 E Orange Ave,,,Eustis,FL,32726
"Yurkiewicz Lisa, DMD - Yurkiewicz Orthodontics",21.38,+13522414884,Orthodontists,1655 E Hwy 50,Ste 101,,Clermont,FL,34711
"Oracare Dental, PA",22.16,+14078785888,"Oral Surgeons,Cosmetic Dentists",320 Lexington Green Ln,,,Sanford,FL,32771
Jackson Dentistry and Orthodontics,29.96,+13525892099,"General Dentistry,Cosmetic Dentists,Oral Surgeons",1141 S Eustis St,,,Eustis,FL,32726
Ladley Robert W DMD,30.27,+13527423383,Endodontists,320 W Burleigh Blvd,# A,,Tavares,FL,32778
Mid Florida Pediatric Dentistry,30.04,+13524839183,Pediatric Dentists,1340 E Orange Ave,,,Eustis,FL,32726
Donald David E DDS DDS,14.67,+14079779990,,1390 City View Ctr,,,Oviedo,FL,32765
